link,title,category,latitude,longitude,address
https://www.google.com/maps/place/B%E1%BB%87nh+vi%E1%BB%87n+Da+Li%E1%BB%85u+Trung+%C6%AF%C6%A1ng/data=!4m7!3m6!1s0x3135ad0c51c0619b:0xcb922ff21ced459d!8m2!3d21.0038019!4d105.8386591!16s%2Fg%2F11h24f58sf!19sChIJm2HAUQytNTERnUXtHPIvkss?authuser=0&hl=en&rclk=1,Bệnh viện Da Liễu Trung Ương,Hospital,21.003802,105.838659,"15A Phương Mai, Đống Đa, Hà Nội 100000"
https://www.google.com/maps/place/Thien+Duc+Hospital/data=!4m7!3m6!1s0x3135acd4e9044211:0xd5e8d37c7aa33582!8m2!3d20.9686774!4d105.7867796!16s%2Fg%2F11h1ssyw9!19sChIJEUIE6dSsNTERgjWjenzT6NU?authuser=0&hl=en&rclk=1,Thien Duc Hospital,General hospital,20.968677,105.78678,"207 Đ. Phùng Hưng, P. Phúc La, Hà Đông, Hà Nội"
https://www.google.com/maps/place/Hoe+Nhai+General+Hospital/data=!4m7!3m6!1s0x3135ab4375efec23:0xdae95d1c05c9b03e!8m2!3d21.0409703!4d105.8459806!16s%2Fg%2F11h1kvfw3f!19sChIJI-zvdUOrNTERPrDJBRxd6do?authuser=0&hl=en&rclk=1,Hoe Nhai General Hospital,General hospital,21.04097,105.845981,"34 P. Hoè Nhai, Nguyễn Trung Trực, Ba Đình, Hà Nội"
https://www.google.com/maps/place/Vietnam+Cuba+Friendship+Hospital/data=!4m7!3m6!1s0x3135ab937ba816ed:0x1dc3a2b63153c25a!8m2!3d21.0246337!4d105.8504659!16s%2Fg%2F1tlk8vzs!19sChIJ7Raoe5OrNTERWsJTMbaiwx0?authuser=0&hl=en&rclk=1,Vietnam Cuba Friendship Hospital,General hospital,21.024634,105.850466,"37 P. Hai Bà Trưng, Tràng Tiền, Hoàn Kiếm, Hà Nội"
https://www.google.com/maps/place/Hanoi+Medical+University+Hospital/data=!4m7!3m6!1s0x3135ac7dc5bab827:0xc076d880a1dc5828!8m2!3d21.0023139!4d105.8301675!16s%2Fg%2F1tl1fbvm!19sChIJJ7i6xX2sNTERKFjcoYDYdsA?authuser=0&hl=en&rclk=1,Hanoi Medical University Hospital,University hospital,21.002314,105.830168,"1 P. Tôn Thất Tùng, Kim Liên, Đống Đa, Hà Nội"
https://www.google.com/maps/place/Hanoi+French+Hospital/data=!4m7!3m6!1s0x3135ac79e17be4d1:0xc15d882c798ee9b6!8m2!3d21.0036226!4d105.840007!16s%2Fm%2F02vtq84!19sChIJ0eR74XmsNTERtumOeSyIXcE?authuser=0&hl=en&rclk=1,Hanoi French Hospital,Hospital,21.003623,105.840007,"Số 1 Phương Mai, Đống Đa, Hà Nội 100000"
https://www.google.com/maps/place/Agriculture+General+Hospital/data=!4m7!3m6!1s0x3135adf343acb4ab:0xedcc73458154d625!8m2!3d20.9212701!4d105.853351!16s%2Fg%2F1xcbm2tb!19sChIJq7SsQ_OtNTERJdZUgUVzzO0?authuser=0&hl=en&rclk=1,Agriculture General Hospital,General hospital,20.92127,105.853351,"Km13+500, QL1A, Ngọc Hồi, Thanh Trì, Hà Nội"
https://www.google.com/maps/place/E+Hospital/data=!4m7!3m6!1s0x3135ab2bc3ed7b2f:0x8479b93f543c3f15!8m2!3d21.0503396!4d105.7888586!16s%2Fg%2F11hgj_b3wd!19sChIJL3vtwyurNTERFT88VD-5eYQ?authuser=0&hl=en&rclk=1,E Hospital,General hospital,21.05034,105.788859,"87-89 Đ. Trần Cung, Nghĩa Tân, Cầu Giấy, Hà Nội 100000"
https://www.google.com/maps/place/%C4%90%C3%B4ng+y+%2F+Ph%E1%BB%A5+khoa/data=!4m7!3m6!1s0x3135ab9eb049c011:0xe40caa8f1f7ec589!8m2!3d21.0265673!4d105.8334277!16s%2Fg%2F11kx86kh4c!19sChIJEcBJsJ6rNTERicV-H4-qDOQ?authuser=0&hl=en&rclk=1,Đông y / Phụ khoa,General hospital,21.026567,105.833428,"118 P.Tôn Đức Thắng, Quốc Tử Giám, Đống Đa, Hà Nội"
https://www.google.com/maps/place/Pk+Ng%E1%BB%8Dc+Thi%E1%BB%87n/data=!4m7!3m6!1s0x313513f6fd8604f9:0x8ceb32937a3389f1!8m2!3d21.3528082!4d106.0787373!16s%2Fg%2F11gf5wbf2n!19sChIJ-QSG_fYTNTER8YkzepMy64w?authuser=0&hl=en&rclk=1,Pk Ngọc Thiện,General hospital,21.352808,106.078737,"1 Phố Tân Lập, Ngọc Thiện, Tân Yên, Bắc Giang"
https://www.google.com/maps/place/X%C6%AF%C6%A0NG+KH%E1%BB%9AP+-+C%E1%BB%98T+S%E1%BB%90NG+VI%E1%BB%86T+X%C3%94/data=!4m7!3m6!1s0x3135abeff7a05571:0xdbc1e0c982336e38!8m2!3d21.0152491!4d105.8615281!16s%2Fg%2F11l9x1n8m6!19sChIJcVWg9--rNTEROG4zgsngwds?authuser=0&hl=en&rclk=1,XƯƠNG KHỚP - CỘT SỐNG VIỆT XÔ,General hospital,21.015249,105.861528,"Đ. Trần Khánh Dư, Bạch Đằng, Hai Bà Trưng, Hà Nội 100000"
https://www.google.com/maps/place/Ph%C3%B2ng+Kh%C3%A1m+%C4%90a+Khoa+Tr%E1%BA%A7n+Duy+H%C6%B0ng/data=!4m7!3m6!1s0x3135ad003c9d7e95:0x7e2a26421c174c1f!8m2!3d21.0115175!4d105.8010152!16s%2Fg%2F11vwjy0fxx!19sChIJlX6dPACtNTERH0wXHEImKn4?authuser=0&hl=en&rclk=1,Phòng Khám Đa Khoa Trần Duy Hưng,General hospital,21.011518,105.801015,"73-75 Đ. Trần Duy Hưng, Trung Hòa Nhân Chính, Cầu Giấy, Hà Nội"
https://www.google.com/maps/place/Bac+Ninh+General+Hospital/data=!4m7!3m6!1s0x31350bfe76ef2833:0x69a3ff12f3be817b!8m2!3d21.1664784!4d106.0666845!16s%2Fg%2F1tg5rjcg!19sChIJMyjvdv4LNTERe4G-8xL_o2k?authuser=0&hl=en&rclk=1,Bac Ninh General Hospital,General hospital,21.166478,106.066684,"Đường Nguyễn Quyền, Võ Cường, Bắc Ninh"
https://www.google.com/maps/place/%C4%90an+Ph%C6%B0%E1%BB%A3ng+General+Hospital/data=!4m7!3m6!1s0x3134566eb14f8b8d:0x20312d1bdc58b0f6!8m2!3d21.0872207!4d105.6711223!16s%2Fg%2F1hc32tt08!19sChIJjYtPsW5WNDER9rBY3BstMSA?authuser=0&hl=en&rclk=1,Đan Phượng General Hospital,General hospital,21.087221,105.671122,"3MPC+VCQ Đan Phượng General Hospital, Tân Hội, Đan Phượng, Hà Nội 100000"
https://www.google.com/maps/place/Hoai+Duc+General+Hospital/data=!4m7!3m6!1s0x3134543077ded017:0x2c39cc23229c7b4e!8m2!3d21.0562558!4d105.7015714!16s%2Fg%2F11gzq4dfm!19sChIJF9DedzBUNDERTnucIiPMOSw?authuser=0&hl=en&rclk=1,Hoai Duc General Hospital,General hospital,21.056256,105.701571,"Thôn Lũng Kênh, Đức Giang, Hoài Đức, Hà Nội"
https://www.google.com/maps/place/CTY+CP+NOI+THAT+TIEN+PHONG/data=!4m7!3m6!1s0x3135ada3333f4e51:0xb4be91cec36a6cd6!8m2!3d20.9427377!4d105.8407014!16s%2Fg%2F11jp1x9svg!19sChIJUU4_M6OtNTER1mxqw86RvrQ?authuser=0&hl=en&rclk=1,CTY CP NOI THAT TIEN PHONG,General hospital,20.942738,105.840701,"111 Đ. Phan Trọng Tuệ, Văn Điển, Thanh Trì, Hà Nội"
https://www.google.com/maps/place/Polyclinic+Hospital+Khoai+Chau+Province/data=!4m7!3m6!1s0x3135ba746aaaaaab:0x7d465d3a0f6e4a05!8m2!3d20.8413242!4d105.9795732!16s%2Fg%2F11clfh9tw0!19sChIJq6qqanS6NTERBUpuDzpdRn0?authuser=0&hl=en&rclk=1,Polyclinic Hospital Khoai Chau Province,Medical Center,20.841324,105.979573,"RXRH+GRG Polyclinic Hospital Khoai Chau Province, Thị Trấn Khoái Châu, Huyện Khoái Châu, An Vĩ, Khoái Châu, Hưng Yên"
https://www.google.com/maps/place/doanh+nghiep+t%C6%B0+nh%C3%A2n/data=!4m7!3m6!1s0x3134555e27b2b80f:0xd65253c6162d74c9!8m2!3d21.0712669!4d105.7764479!16s%2Fg%2F11jpw3fzw5!19sChIJD7iyJ15VNDERyXQtFsZTUtY?authuser=0&hl=en&rclk=1,doanh nghiep tư nhân,General hospital,21.071267,105.776448,"9 P. Viên, Cổ Nhuế, Bắc Từ Liêm, Hà Nội"
https://www.google.com/maps/place/Thuong+Tin+Hospital/data=!4m7!3m6!1s0x3135b2335176f44d:0xceb8ef8f5ed3b590!8m2!3d20.8676317!4d105.859078!16s%2Fg%2F11xjbv9f_!19sChIJTfR2UTOyNTERkLXTXo_vuM4?authuser=0&hl=en&rclk=1,Thuong Tin Hospital,General hospital,20.867632,105.859078,"115 P. Nguyễn Phi Khanh, TT. Thường Tín, Thường Tín, Hà Nội"
https://www.google.com/maps/place/B%E1%BB%87nh+vi%E1%BB%87n+%C4%90a+khoa+Ph%E1%BB%91+N%E1%BB%91i/data=!4m7!3m6!1s0x3135a48716f7d879:0xb16ef278e240795f!8m2!3d20.9407102!4d106.0568525!16s%2Fg%2F1tff9ny3!19sChIJedj3FoekNTERX3lA4njybrE?authuser=0&hl=en&rclk=1,Bệnh viện Đa khoa Phố Nối,General hospital,20.94071,106.056852,"TT. Bần Yên Nhân, Mỹ Hào, Hưng Yên"
https://www.google.com/maps/place/Phu+Xuyen+Hospital/data=!4m7!3m6!1s0x3135b62f28aff70f:0xd2f894f0491241a1!8m2!3d20.729694!4d105.9144424!16s%2Fg%2F11b682t205!19sChIJD_evKC-2NTERoUESSfCU-NI?authuser=0&hl=en&rclk=1,Phu Xuyen Hospital,General hospital,20.729694,105.914442,"PWH7+VQG Phu Xuyen Hospital, QL1A, TT. Phú Xuyên, Phú Xuyên, Hà Nội"
https://www.google.com/maps/place/Hospital+74/data=!4m7!3m6!1s0x3134fc166895d451:0x939298c4ae7af924!8m2!3d21.2217375!4d105.7095981!16s%2Fg%2F1tlqmfy2!19sChIJUdSVaBb8NDERJPl6rsSYkpM?authuser=0&hl=en&rclk=1,Hospital 74,General hospital,21.221737,105.709598,"6PC5+FH2 Hospital 74, Triệu Thị Khoan Hòa, Phường Hùng Vương, Phúc Yên, Vĩnh Phúc"
https://www.google.com/maps/place/Dong+Da+General+Hospital/data=!4m7!3m6!1s0x3135ab7f2d65d68d:0xfc36f119646749c6!8m2!3d21.0155443!4d105.827184!16s%2Fg%2F11bxfzv34n!19sChIJjdZlLX-rNTERxklnZBnxNvw?authuser=0&hl=en&rclk=1,Dong Da General Hospital,General hospital,21.015544,105.827184,"192 Ng. 180 P. Nguyễn Lương Bẳng, Quang Trung, Đống Đa, Hà Nội"
https://www.google.com/maps/place/B%E1%BB%87nh+vi%E1%BB%87n+%C4%90a+khoa+Khu+V%E1%BB%B1c+Ph%C3%BAc+Y%C3%AAn/data=!4m7!3m6!1s0x3134fc6bb268badf:0xf269d86ff4769140!8m2!3d21.2329169!4d105.7082836!16s%2Fg%2F1tdnbqhg!19sChIJ37posmv8NDERQJF29G_YafI?authuser=0&hl=en&rclk=1,Bệnh viện Đa khoa Khu Vực Phúc Yên,General hospital,21.232917,105.708284,"Tổ 1, Phúc Yên, Vĩnh Phúc 283570"
https://www.google.com/maps/place/Hanoi+Heart+Hospital/data=!4m7!3m6!1s0x3135ab911e785029:0x90e43f2936ff4db1!8m2!3d21.0236186!4d105.8438683!16s%2Fg%2F1tj1jzq4!19sChIJKVB4HpGrNTERsU3_Nik_5JA?authuser=0&hl=en&rclk=1,Hanoi Heart Hospital,Heart hospital,21.023619,105.843868,"92 Trần Hưng Đạo, Cửa Nam, Hoàn Kiếm, Hà Nội"
https://www.google.com/maps/place/Agriculture+General+Hospital+2/data=!4m7!3m6!1s0x3135ab7c53cc682b:0xf002ec2885dbc213!8m2!3d21.0135525!4d105.8210582!16s%2Fg%2F11c5_90w7f!19sChIJK2jMU3yrNTERE8LbhSjsAvA?authuser=0&hl=en&rclk=1,Agriculture General Hospital 2,General hospital,21.013552,105.821058,"16 Ng. 183 Đặng Tiến Đông, Trung Liệt, Đống Đa, Hà Nội"
https://www.google.com/maps/place/Trung+T%C3%A2m+C%E1%BA%A5p+C%E1%BB%A9u+B%E1%BB%87nh+vi%E1%BB%87n+%C4%90a+khoa+Xanh+P%C3%B4n/data=!4m7!3m6!1s0x3135ab98a6794dfd:0x9b0618cc1f668256!8m2!3d21.0311949!4d105.8360739!16s%2Fg%2F11hylcyq3g!19sChIJ_U15ppirNTERVoJmH8wYBps?authuser=0&hl=en&rclk=1,Trung Tâm Cấp Cứu Bệnh viện Đa khoa Xanh Pôn,General hospital,21.031195,105.836074,"59 P. Trần Phú, Điện Biên, Hoàn Kiếm, Hà Nội"
https://www.google.com/maps/place/H%E1%BB%99i+Ph%E1%BA%ABu+thu%E1%BA%ADt+N%E1%BB%99i+soi+v%C3%A0+N%E1%BB%99i+soi+Vi%E1%BB%87t+Nam/data=!4m7!3m6!1s0x3135ab96817aaaab:0x87a619de3ce646ff!8m2!3d21.0278086!4d105.8464144!16s%2Fg%2F11j_bydgnx!19sChIJq6p6gZarNTER_0bmPN4Zpoc?authuser=0&hl=en&rclk=1,Hội Phẫu thuật Nội soi và Nội soi Việt Nam,General hospital,21.027809,105.846414,"40 P. Tràng Thi, Hàng Bông, Hoàn Kiếm, Hà Nội"
https://www.google.com/maps/place/108+Military+Central+Hospital/data=!4m7!3m6!1s0x3135abee2cabbe6f:0xa87d18d26d9dc536!8m2!3d21.0182483!4d105.8603511!16s%2Fm%2F02vtpcy!19sChIJb76rLO6rNTERNsWdbdIYfag?authuser=0&hl=en&rclk=1,108 Military Central Hospital,Hospital,21.018248,105.860351,"1B Trần Hưng Đạo, Bạch Đằng, Hai Bà Trưng, Hà Nội"
https://www.google.com/maps/place/Khoa+Ngo%E1%BA%A1i+t%E1%BB%95ng+h%E1%BB%A3p_B%E1%BB%87nh+vi%E1%BB%87n+B%E1%BA%AFc+th%C4%83ng+long/data=!4m7!3m6!1s0x313501ecd0b6016d:0xe2d285f644ea9f69!8m2!3d21.1611147!4d105.8495924!16s%2Fg%2F11flgfxxc8!19sChIJbQG20OwBNTERaZ_qRPaF0uI?authuser=0&hl=en&rclk=1,Khoa Ngoại tổng hợp_Bệnh viện Bắc thăng long,General hospital,21.161115,105.849592,"Tổ 18 tầng 2 nhà B, Đông Anh, Hà Nội"
https://www.google.com/maps/place/B%E1%BB%87nh+Vi%E1%BB%87n+Ph%E1%BB%A5+S%E1%BA%A3n+Trung+%C6%AF%C6%A1ng/data=!4m7!3m6!1s0x3135ab941f784ea1:0x389e724d7b6fe803!8m2!3d21.0269789!4d105.8466583!16s%2Fg%2F11cfjryc2!19sChIJoU54H5SrNTERA-hve01ynjg?authuser=0&hl=en&rclk=1,Bệnh Viện Phụ Sản Trung Ương,Hospital,21.026979,105.846658,"43 P. Tràng Thi, Hàng Bông, Hoàn Kiếm, Hà Nội"
https://www.google.com/maps/place/Duke+University+Hospital/data=!4m7!3m6!1s0x89ace6ad0276d4d9:0x795843b4ea34bb3!8m2!3d36.0075097!4d-78.9384272!16zL20vMDdkdzN5!19sChIJ2dR2Aq3mrIkRs0ujTjuElQc?authuser=0&hl=en&rclk=1,Duke University Hospital,University hospital,36.00751,-78.938427,"Duke Univ Hospital, 2301 Erwin Rd, Durham, NC 27710, United States"
https://www.google.com/maps/place/United+Christian+Hospital/data=!4m7!3m6!1s0x340406ad58aab66b:0xb10e3fa4a2ef0fac!8m2!3d22.323232!4d114.2270078!16zL20vMGdfbG56!19sChIJa7aqWK0GBDQRrA_voqQ_DrE?authuser=0&hl=en&rclk=1,United Christian Hospital,General hospital,22.323232,114.227008,"130 Hip Wo St, Kwun Tong, Hong Kong"
https://www.google.com/maps/place/Hoa+Sen+Trang+Pharma+Joint+Stock+Company/data=!4m7!3m6!1s0x3134e55ed6d61f47:0x3738887c23601909!8m2!3d21.3276955!4d105.5976208!16s%2Fg%2F1pzvbhvy3!19sChIJRx_W1l7lNDERCRlgI3yIODc?authuser=0&hl=en&rclk=1,Hoa Sen Trang Pharma Joint Stock Company,General hospital,21.327696,105.597621,"51, Đường Chùa Hà, Xã Định Trung, Định Trung, Vĩnh Yên, Vĩnh Phúc"
https://www.google.com/maps/place/Queen+Elizabeth+Hospital/data=!4m7!3m6!1s0x340400c26b2871b5:0xe0cd63796b5dfdaa!8m2!3d22.3091816!4d114.1743747!16zL20vMDhiem02!19sChIJtXEoa8IABDQRqv1da3ljzeA?authuser=0&hl=en&rclk=1,Queen Elizabeth Hospital,Government hospital,22.309182,114.174375,"30 號 Gascoigne Rd, Yau Ma Tei, Hong Kong"
https://www.google.com/maps/place/354+Military+Hospital/data=!4m7!3m6!1s0x3135ab1159bbab07:0x4005ba5f5e08969a!8m2!3d21.0400408!4d105.8120137!16s%2Fg%2F122l8fmt!19sChIJB6u7WRGrNTERmpYIXl-6BUA?authuser=0&hl=en&rclk=1,354 Military Hospital,Military hospital,21.040041,105.812014,"120 P. Đốc Ngữ, Vĩnh Phú, Ba Đình, Hà Nội"
https://www.google.com/maps/place/University+Hospital/data=!4m7!3m6!1s0x87dcb7bbe82dfbb1:0xf3e09aceaa58612d!8m2!3d38.9385546!4d-92.3274421!16s%2Fm%2F02qnw9k!19sChIJsfst6Lu33IcRLWFYqs6a4PM?authuser=0&hl=en&rclk=1,University Hospital,Hospital,38.938555,-92.327442,"Univ Hospital, 1 Hospital Dr, Columbia, MO 65212, United States"
https://www.google.com/maps/place/B%E1%BB%87nh+vi%E1%BB%87n+Vi%E1%BB%87t+%C4%90%E1%BB%A9c/data=!4m7!3m6!1s0x3135abbbc8155c4d:0x2dbd68dc4c6af657!8m2!3d21.0277587!4d105.8463794!16s%2Fm%2F02r2dwp!19sChIJTVwVyLurNTERV_ZqTNxovS0?authuser=0&hl=en&rclk=1,Bệnh viện Việt Đức,Hospital,21.027759,105.846379,"40 P. Tràng Thi, Hàng Bông, Hoàn Kiếm, Hà Nội"
https://www.google.com/maps/place/Bumrungrad+International+Hospital/data=!4m7!3m6!1s0x30e29ee677aa7f5b:0xf8a8de865c2e8a77!8m2!3d13.746066!4d100.5526867!16zL20vMGgxM2Rs!19sChIJW3-qd-ae4jARd4ouXIbeqPg?authuser=0&hl=en&rclk=1,Bumrungrad International Hospital,Private hospital,13.746066,100.552687,"33 Soi Sukhumvit 3, Khlong Toei Nuea, Watthana, Bangkok 10110, Thailand"
https://www.google.com/maps/place/Jeanes+Campus+%E2%80%93+Temple+University+Hospital/data=!4m7!3m6!1s0x89c6b13520553101:0x79a66ef7e13df3a5!8m2!3d40.0706545!4d-75.0880003!16s%2Fg%2F1thvtndv!19sChIJATFVIDWxxokRpfM94fdupnk?authuser=0&hl=en&rclk=1,Jeanes Campus – Temple University Hospital,Hospital,40.070654,-75.088,"Jeanes Campus – Temple Univ Hospital, 7600 Central Ave, Philadelphia, PA 19111, United States"
https://www.google.com/maps/place/MedStar+Georgetown+University+Hospital/data=!4m7!3m6!1s0x89b7b63f6c578775:0x2e8c55e6e977ad40!8m2!3d38.911464!4d-77.0751693!16s%2Fm%2F02vs27y!19sChIJdYdXbD-2t4kRQK136eZVjC4?authuser=0&hl=en&rclk=1,MedStar Georgetown University Hospital,University hospital,38.911464,-77.075169,"MedStar Georgetown Univ Hospital, 3800 Reservoir Rd NW, Washington, DC 20007, United States"
https://www.google.com/maps/place/Trinitas+Regional+Medical+Center/data=!4m7!3m6!1s0x89c24d4d84abf3a1:0x1c033e51185c115!8m2!3d40.6589706!4d-74.214982!16s%2Fg%2F1thqhnws!19sChIJofOrhE1NwokRFcGFEeUzwAE?authuser=0&hl=en&rclk=1,Trinitas Regional Medical Center,Medical Center,40.658971,-74.214982,"225 Williamson St, Elizabeth, NJ 07202, United States"
https://www.google.com/maps/place/Northwestern+Memorial+Hospital/data=!4m7!3m6!1s0x880e2cab2c53ba6b:0xa0a3e3c8f728ec37!8m2!3d41.8947049!4d-87.6214858!16zL20vMGc4dl9i!19sChIJa7pTLKssDogRN-wo98jjo6A?authuser=0&hl=en&rclk=1,Northwestern Memorial Hospital,Hospital,41.894705,-87.621486,"Northwestern Mem Hospital, 251 E Huron St, Chicago, IL 60611, United States"
https://www.google.com/maps/place/Robert+Wood+Johnson+University+Hospital+Rahway/data=!4m7!3m6!1s0x89c3b3ecfdd75705:0x163548050742e226!8m2!3d40.6131308!4d-74.2909032!16s%2Fg%2F1tcwmhkn!19sChIJBVfX_eyzw4kRJuJCBwVINRY?authuser=0&hl=en&rclk=1,Robert Wood Johnson University Hospital Rahway,University hospital,40.613131,-74.290903,"Robert Wood Johnson Univ Hospital Rahway, 865 Stone St, Rahway, NJ 07065, United States"
https://www.google.com/maps/place/Hanoi+Hospital/data=!4m7!3m6!1s0x3135abf278c3f183:0x46cfd3983e522b6c!8m2!3d21.0182646!4d105.855612!16s%2Fg%2F1hc1l_n5m!19sChIJg_HDePKrNTERbCtSPpjTz0Y?authuser=0&hl=en&rclk=1,Hanoi Hospital,General hospital,21.018265,105.855612,"29 P.Hàn Thuyên, Phạm Đình Hổ, Hai Bà Trưng, Hà Nội"
https://www.google.com/maps/place/MEDLATEC+Hospital/data=!4m7!3m6!1s0x3135abb3fd62fe1d:0x8258254f7bb0a921!8m2!3d21.0485694!4d105.8460875!16s%2Fg%2F1hg4r4c6f!19sChIJHf5i_bOrNTERIamwe08lWII?authuser=0&hl=en&rclk=1,MEDLATEC Hospital,General hospital,21.048569,105.846087,"42 P. Nghĩa Dũng, Phúc xá, Ba Đình, Hà Nội 100000"
https://www.google.com/maps/place/Son+Uyen+Hospital/data=!4m7!3m6!1s0x313510a18087c259:0xf657073d69c97fc1!8m2!3d21.3531623!4d105.978291!16s%2Fg%2F11b7sx1kt6!19sChIJWcKHgKEQNTERwX_JaT0HV_Y?authuser=0&hl=en&rclk=1,Son Uyen Hospital,Hospital,21.353162,105.978291,"34-36 Lý Thường Kiệt, TT. Thắng, Hiệp Hòa, Bắc Giang"
https://www.google.com/maps/place/Trung+T%C3%A2m+Gia+Li%E1%BB%85u+%C4%90o%C3%A0n+L%E1%BA%A1i/data=!4m7!3m6!1s0x3134e552205db9a7:0xbe5466bc7d2736b2!8m2!3d21.3147839!4d105.6044465!16s%2Fg%2F1pzxnyq2m!19sChIJp7ldIFLlNDERsjYnfbxmVL4?authuser=0&hl=en&rclk=1,Trung Tâm Gia Liễu Đoàn Lại,General hospital,21.314784,105.604446,"16 Trần Nguyên Hãn, Liên Bảo, Vĩnh Yên, Vĩnh Phúc"
https://www.google.com/maps/place/Tr%E1%BA%A1m+Y+T%E1%BA%BF+X%C3%A3+Th%C3%A1i+Ho%C3%A0/data=!4m7!3m6!1s0x3135bd7e51feaf19:0xd87c4b4866b0a723!8m2!3d20.8425292!4d106.1558676!16s%2Fg%2F1pzxqtf5j!19sChIJGa_-UX69NTERI6ewZkhLfNg?authuser=0&hl=en&rclk=1,Trạm Y Tế Xã Thái Hoà,General hospital,20.842529,106.155868,"R5V4+289 Trạm Y Tế Xã Thái Hoà, Thái Hoà, Bình Giang, Hải Dương"
https://www.google.com/maps/place/B%E1%BB%87nh+vi%E1%BB%87n+%C4%91a+khoa+Anh+Qu%E1%BA%A5t/data=!4m7!3m6!1s0x313514ef38115669:0x91b8b4c0ff1baea!8m2!3d21.3846238!4d106.1277052!16s%2Fg%2F1jkwlszzw!19sChIJaVYROO8UNTER6rrxD0yLGwk?authuser=0&hl=en&rclk=1,Bệnh viện đa khoa Anh Quất,General hospital,21.384624,106.127705,"ĐT284, TT. Cao Thượng, Tân Yên, Bắc Giang"
https://www.google.com/maps/place/Trung+T%C3%A2m+Y+T%E1%BA%BF+D%E1%BB%B1+Ph%C3%B2ng+Huy%E1%BB%87n+Hi%E1%BB%87p+Ho%C3%A0/data=!4m7!3m6!1s0x313510af9a3cb307:0x9b3b542061866efa!8m2!3d21.3552091!4d105.9798085!16s%2Fg%2F1pzxlcfn3!19sChIJB7M8mq8QNTER-m6GYSBUO5s?authuser=0&hl=en&rclk=1,Trung Tâm Y Tế Dự Phòng Huyện Hiệp Hoà,General hospital,21.355209,105.979808,"9X4H+3WM Trung Tâm Y Tế Dự Phòng Huyện Hiệp Hoà, TT. Thắng, Hiệp Hòa, Bắc Giang"
https://www.google.com/maps/place/University+of+Michigan+Hospital/data=!4m7!3m6!1s0x883cae688d408bd1:0xb93e3b714cb28a87!8m2!3d42.2837581!4d-83.7311527!16zL20vMDhtaG14!19sChIJ0YtAjWiuPIgRh4qyTHE7Prk?authuser=0&hl=en&rclk=1,University of Michigan Hospital,University hospital,42.283758,-83.731153,"Univ of Michigan Hospital, 1500 E Medical Center Dr, Ann Arbor, MI 48109, United States"
https://www.google.com/maps/place/Northside+Hospital+Gwinnett/data=!4m7!3m6!1s0x88f5be803b3a0009:0x421ded1e3de136c3!8m2!3d33.9631592!4d-84.017493!16s%2Fm%2F04jnbj1!19sChIJCQA6O4C-9YgRwzbhPR7tHUI?authuser=0&hl=en&rclk=1,Northside Hospital Gwinnett,Medical Center,33.963159,-84.017493,"1000 Medical Center Blvd, Lawrenceville, GA 30046, United States"
https://www.google.com/maps/place/Trung+T%C3%A2m+Y+T%E1%BA%BF+Huy%E1%BB%87n+B%C3%ACnh+Xuy%C3%AAn/data=!4m7!3m6!1s0x3134fb0eaaaaaaab:0xcb559c1ec5e89ef9!8m2!3d21.2732511!4d105.6512998!16s%2Fg%2F1pzx5cql9!19sChIJq6qqqg77NDER-Z7oxR6cVcs?authuser=0&hl=en&rclk=1,Trung Tâm Y Tế Huyện Bình Xuyên,General hospital,21.273251,105.6513,"TT. Hương Canh, Bình Xuyên, Vĩnh Phúc"
https://www.google.com/maps/place/OCH+Regional+Medical+Center/data=!4m7!3m6!1s0x888135023c332a8f:0x7fc6bbcc0700924c!8m2!3d33.4760291!4d-88.820645!16s%2Fg%2F11hdyjsy88!19sChIJjyozPAI1gYgRTJIAB8y7xn8?authuser=0&hl=en&rclk=1,OCH Regional Medical Center,Medical Center,33.476029,-88.820645,"OCH Reg'l Medical Ctr, 400 Hospital Rd, Starkville, MS 39759, United States"
https://www.google.com/maps/place/Y+H%E1%BB%8Dc+C%E1%BB%95+Truy%E1%BB%81n+Th%C3%A0nh+%C4%90%E1%BA%A1t/data=!4m7!3m6!1s0x3135a4b28a426ff7:0x2a5a1a4e95b8c914!8m2!3d20.8984668!4d106.0510059!16s%2Fg%2F1pzqk_g9b!19sChIJ929CirKkNTERFMm4lU4aWio?authuser=0&hl=en&rclk=1,Y Học Cổ Truyền Thành Đạt,General hospital,20.898467,106.051006,"V3X2+9CJ Y Học Cổ Truyền Thành Đạt, Tân Lập, Yên Mỹ, Hưng Yên"
https://www.google.com/maps/place/The+Johns+Hopkins+Hospital/data=!4m7!3m6!1s0x89c80462dd7f9b41:0xeceddd36a48a8c8f!8m2!3d39.2967385!4d-76.5927362!16zL20vMDFnMDhm!19sChIJQZt_3WIEyIkRj4yKpDbd7ew?authuser=0&hl=en&rclk=1,The Johns Hopkins Hospital,Hospital,39.296738,-76.592736,"1800 Orleans St, Baltimore, MD 21287, United States"
https://www.google.com/maps/place/B%E1%BB%87nh+vi%E1%BB%87n+%C4%91a+khoa+H%E1%BB%93ng+Ph%C3%BAc/data=!4m7!3m6!1s0x3135091cee720523:0x1934426cc4f1f4ff!8m2!3d21.1679179!4d106.046114!16s%2Fg%2F11fjn5yllk!19sChIJIwVy7hwJNTER__TxxGxCNBk?authuser=0&hl=en&rclk=1,Bệnh viện đa khoa Hồng Phúc,General hospital,21.167918,106.046114,"Nguyễn Văn Cừ/434 Hòa Đình, Võ Cường, Bắc Ninh"
https://www.google.com/maps/place/Viet+Yen+General+Hospital/data=!4m7!3m6!1s0x313512691cf3d1a1:0x20648725f3c6ee8!8m2!3d21.2814364!4d106.0957817!16s%2Fg%2F12mjyhq23!19sChIJodHzHGkSNTER6G48X3JIBgI?authuser=0&hl=en&rclk=1,Viet Yen General Hospital,General hospital,21.281436,106.095782,"73JW+H8F Viet Yen General Hospital, TT. Bích Động, Việt Yên, Bắc Giang"
https://www.google.com/maps/place/UNC+Hospitals/data=!4m7!3m6!1s0x89acc2ee4e815f55:0xc75fcb3a375c5b3d!8m2!3d35.9049367!4d-79.0506255!16zL20vMGYwcGh6!19sChIJVV-BTu7CrIkRPVtcNzrLX8c?authuser=0&hl=en&rclk=1,UNC Hospitals,University hospital,35.904937,-79.050625,"UNC, 101 Manning Dr, Chapel Hill, NC 27514, United States"
https://www.google.com/maps/place/Gia+Lam+Hospital/data=!4m7!3m6!1s0x3135a8c5b4f1deff:0x27e57979c5d3de97!8m2!3d21.0093983!4d105.9440006!16s%2Fg%2F11xgsz760!19sChIJ_97xtMWoNTERl97TxXl55Sc?authuser=0&hl=en&rclk=1,Gia Lam Hospital,General hospital,21.009398,105.944001,"2W5V+QJ2 Gia Lam Hospital, Trâu Quỳ, Gia Lâm, Hà Nội"
https://www.google.com/maps/place/Valley+Medical+Center/data=!4m7!3m6!1s0x54906ad3695b2f31:0x5c10ebba68f5b725!8m2!3d47.4428037!4d-122.2138884!16s%2Fg%2F11csryfrng!19sChIJMS9badNqkFQRJbf1aLrrEFw?authuser=0&hl=en&rclk=1,Valley Medical Center,Medical Center,47.442804,-122.213888,"Vly Medical Ctr, 400 S 43rd St, Renton, WA 98055, United States"
https://www.google.com/maps/place/Giang+Tien+Commune+Medical+Center/data=!4m7!3m6!1s0x31351f6787be630b:0x2ee81da31830dcbd!8m2!3d21.461616!4d105.8524132!16s%2Fg%2F11b6dqt2x_!19sChIJC2O-h2cfNTERvdwwGKMd6C4?authuser=0&hl=en&rclk=1,Giang Tien Commune Medical Center,General hospital,21.461616,105.852413,"FV62+JXV Giang Tien Commune Medical Center, Pho Co Ward, Song Cong Town, Cải Đan, Sông Công, Thái Nguyên"
https://www.google.com/maps/place/BMA+General+Hospital+%28Klang+Hospital%29/data=!4m7!3m6!1s0x30e2993ccd4d9209:0x2abd4b86193d21ec!8m2!3d13.7465459!4d100.5092822!16s%2Fg%2F1234hms7!19sChIJCZJNzTyZ4jAR7CE9GYZLvSo?authuser=0&hl=en&rclk=1,BMA General Hospital (Klang Hospital),Government hospital,13.746546,100.509282,"514 Luang Rd, Pom Prap, Pom Prap Sattru Phai, Bangkok 10100, Thailand"
https://www.google.com/maps/place/Truong+Tho+Clinic/data=!4m7!3m6!1s0x3135ba36c7667cf7:0xe3417d3f7449d516!8m2!3d20.8252977!4d106.0096157!16s%2Fg%2F1pzt864n5!19sChIJ93xmxza6NTERFtVJdD99QeM?authuser=0&hl=en&rclk=1,Truong Tho Clinic,General hospital,20.825298,106.009616,"R2G5+4R9 Truong Tho Clinic, Bo Thoi Hamlet, Hong Tien Ward, Khoai Chau District, Hồng Tiến, Khoái Châu, Hưng Yên"
https://www.google.com/maps/place/University+College+Hospital/data=!4m7!3m6!1s0x48761b28a04a16fd:0xc66b4a8d980bcb8b!8m2!3d51.5250869!4d-0.1364556!16zL20vMDJtNnc5!19sChIJ_RZKoCgbdkgRi8sLmI1Ka8Y?authuser=0&hl=en&rclk=1,University College Hospital,University hospital,51.525087,-0.136456,"235 Euston Rd., London NW1 2BU, United Kingdom"
https://www.google.com/maps/place/B%E1%BB%87nh+vi%E1%BB%87n+TNH+Vi%E1%BB%87t+Y%C3%AAn/data=!4m7!3m6!1s0x313513ef19bf8947:0x3a66fac7f166c8a!8m2!3d21.26698!4d106.103594!16s%2Fg%2F11tscwh80x!19sChIJR4m_Ge8TNTERimwWf6xvpgM?authuser=0&hl=en&rclk=1,Bệnh viện TNH Việt Yên,General hospital,21.26698,106.103594,"7484+P26 Bệnh viện TNH Việt Yên, Đường Nguyễn Thế Nho, TT. Bích Động, Việt Yên, Bắc Giang"
https://www.google.com/maps/place/New+York+Presbyterian+Hospital/data=!4m7!3m6!1s0x89c2f69c7b9303e3:0x65448f44b3f9b0cb!8m2!3d40.8409681!4d-73.9415602!16s%2Fm%2F04ckrzs!19sChIJ4wOTe5z2wokRy7D5s0SPRGU?authuser=0&hl=en&rclk=1,New York Presbyterian Hospital,Hospital,40.840968,-73.94156,"Praveen Hospital Lane, New York, NY 10032, United States"
https://www.google.com/maps/place/Ba+V%C3%AC+District+General+Hospital/data=!4m7!3m6!1s0x3134f4b4f3d2f985:0x500fcf6a15ef12ed!8m2!3d21.2149214!4d105.4096749!16s%2Fg%2F1vzf_qjt!19sChIJhfnS87T0NDER7RLvFWrPD1A?authuser=0&hl=en&rclk=1,Ba Vì District General Hospital,General hospital,21.214921,105.409675,"UBND xã Đồng Thái, Đồng Thái, Ba Vì, Hà Nội"
https://www.google.com/maps/place/L%C6%B0%C6%A1ng+S%C6%A1n+General+Hospital/data=!4m7!3m6!1s0x3134443f5cdc1983:0x8be1fdfb87b47556!8m2!3d20.8747794!4d105.5283751!16s%2Fg%2F1pp2v0ycm!19sChIJgxncXD9ENDERVnW0h_v94Ys?authuser=0&hl=en&rclk=1,Lương Sơn General Hospital,General hospital,20.874779,105.528375,"VGFH+W96 Lương Sơn General Hospital, TT. Lương Sơn, Lương Sơn, Hòa Bình"
https://www.google.com/maps/place/The+Valley+Hospital/data=!4m7!3m6!1s0x89c2e4b8aa8a0f1b:0x827c9f66a91a3027!8m2!3d40.9649595!4d-74.0717285!16s%2Fm%2F04yfq4l!19sChIJGw-KqrjkwokRJzAaqWaffII?authuser=0&hl=en&rclk=1,The Valley Hospital,Hospital,40.964959,-74.071728,"4 Valley Health Plaza, Paramus, NJ 07652, United States"
https://www.google.com/maps/place/King+Chulalongkorn+Memorial+Hospital/data=!4m7!3m6!1s0x30e29f298a27c7e1:0xdb584fa3e3e2f5c0!8m2!3d13.7324595!4d100.5360749!16s%2Fm%2F05mr1lz!19sChIJ4ccniimf4jARwPXi46NPWNs?authuser=0&hl=en&rclk=1,King Chulalongkorn Memorial Hospital,University hospital,13.732459,100.536075,"1873 Rama IV Rd, Pathum Wan, Bangkok 10330, Thailand"
https://www.google.com/maps/place/V%C4%A9nh+Ph%C3%BAc+General+Hospital/data=!4m7!3m6!1s0x3134e5572b9c243b:0xef49d705a98534f3!8m2!3d21.3186281!4d105.6003031!16s%2Fg%2F1tdx65b4!19sChIJOyScK1flNDER8zSFqQXXSe8?authuser=0&hl=en&rclk=1,Vĩnh Phúc General Hospital,General hospital,21.318628,105.600303,"1 Tôn Thất Tùng, Liên Bảo, Vĩnh Yên, Vĩnh Phúc"
https://www.google.com/maps/place/Health+Sciences+Centre+Winnipeg/data=!4m7!3m6!1s0x52ea73e509eeda6b:0xaa800583e3866454!8m2!3d49.9046133!4d-97.1592896!16zL20vMGRfNTNo!19sChIJa9ruCeVz6lIRVGSG44MFgKo?authuser=0&hl=en&rclk=1,Health Sciences Centre Winnipeg,University hospital,49.904613,-97.15929,"820 Sherbrook St, Winnipeg, MB R3A 1R9, Canada"
https://www.google.com/maps/place/Tan+Yen+District+Hospital/data=!4m7!3m6!1s0x3135144000000001:0x55553fcdb2b7fd8!8m2!3d21.3956442!4d106.1257354!16s%2Fg%2F1pztzsky6!19sChIJAQAAAEAUNTER2H8r2_xTVQU?authuser=0&hl=en&rclk=1,Tan Yen District Hospital,General hospital,21.395644,106.125735,"94WG+775 Tan Yen District Hospital, Ngọc Châu, Tân Yên, Bắc Giang"
https://www.google.com/maps/place/Coconut+Creek+Medical+Center/data=!4m7!3m6!1s0x88d9049ffd8d1a87:0x8da5196575ae1a7a!8m2!3d26.247684!4d-80.1875419!16s%2Fg%2F11gf62jj3d!19sChIJhxqN_Z8E2YgRehqudWUZpY0?authuser=0&hl=en&rclk=1,Coconut Creek Medical Center,Medical Center,26.247684,-80.187542,"1301 Lyons Rd, Coconut Creek, FL 33063, United States"
https://www.google.com/maps/place/Bach+Mai+Hospital/data=!4m7!3m6!1s0x3135adffce65e721:0x6a3072a648e4bf17!8m2!3d21.0019284!4d105.8403842!16s%2Fm%2F02r0lpn!19sChIJIedlzv-tNTERF7_kSKZyMGo?authuser=0&hl=en&rclk=1,Bach Mai Hospital,Hospital,21.001928,105.840384,"78 Đ. Giải Phóng, Phương Đình, Đống Đa, Hà Nội"
https://www.google.com/maps/place/NYU+Langone+Hospital+Long+Island/data=!4m7!3m6!1s0x89c27d50ad821595:0x98816e82efee709f!8m2!3d40.7408302!4d-73.6430786!16s%2Fm%2F04g3bnr!19sChIJlRWCrVB9wokRn3Du74JugZg?authuser=0&hl=en&rclk=1,NYU Langone Hospital Long Island,Hospital,40.74083,-73.643079,"259 1st St, Mineola, NY 11501, United States"
https://www.google.com/maps/place/University+Hospital/data=!4m7!3m6!1s0x89c253674088ebdb:0xdf0ebe798c918602!8m2!3d40.740324!4d-74.1893163!16s%2Fm%2F02vp_cq!19sChIJ2-uIQGdTwokRAoaRjHm-Dt8?authuser=0&hl=en&rclk=1,University Hospital,University hospital,40.740324,-74.189316,"Univ Hospital, 150 Bergen St, Newark, NJ 07103, United States"
https://www.google.com/maps/place/Thomas+Jefferson+University+Hospital/data=!4m7!3m6!1s0x89c6c62894fe77ff:0x767d46e478439f5f!8m2!3d39.9480125!4d-75.1566827!16s%2Fm%2F0swn7s9!19sChIJ_3f-lCjGxokRX59DeORGfXY?authuser=0&hl=en&rclk=1,Thomas Jefferson University Hospital,Hospital,39.948012,-75.156683,"111 S 11th St, Philadelphia, PA 19107, United States"
https://www.google.com/maps/place/Thanh+Nhan+Hospital/data=!4m7!3m6!1s0x3135ac0978ea6dc7:0xe5103a9add00b9ed!8m2!3d21.0035559!4d105.859375!16s%2Fm%2F03c_n_v!19sChIJx23qeAmsNTER7bkA3Zo6EOU?authuser=0&hl=en&rclk=1,Thanh Nhan Hospital,General hospital,21.003556,105.859375,"42 P. Thanh Nhàn, Thanh Nhàn, Hai Bà Trưng, Hà Nội"
https://www.google.com/maps/place/Trang+An+General+Hospital/data=!4m7!3m6!1s0x3135ab9c03e97ed1:0xa696ee7dc3fa6f2c!8m2!3d21.0256881!4d105.8353315!16s%2Fg%2F11h1v02df!19sChIJ0X7pA5yrNTERLG_6w33ulqY?authuser=0&hl=en&rclk=1,Trang An General Hospital,General hospital,21.025688,105.835331,"59 Ng. Thông Phong, Văn Chương, Đống Đa, Hà Nội"
https://www.google.com/maps/place/Hong+Ngoc+General+Hospital/data=!4m7!3m6!1s0x3135abba7ba53e11:0x587dbd43c0113ca9!8m2!3d21.0424822!4d105.8441768!16s%2Fg%2F1yl48pt04!19sChIJET6le7qrNTERqTwRwEO9fVg?authuser=0&hl=en&rclk=1,Hong Ngoc General Hospital,General hospital,21.042482,105.844177,"55 P. Yên Ninh, Quán Thánh, Ba Đình, Hà Nội"
https://www.google.com/maps/place/The+Ohio+State+University+Wexner+Medical+Center/data=!4m7!3m6!1s0x88388eeb78c26145:0xb83eeb61208f4a1b!8m2!3d39.9946534!4d-83.0172043!16s%2Fm%2F07kcq95!19sChIJRWHCeOuOOIgRG0qPIGHrPrg?authuser=0&hl=en&rclk=1,The Ohio State University Wexner Medical Center,Hospital,39.994653,-83.017204,"410 W 10th Ave, Columbus, OH 43210, United States"
https://www.google.com/maps/place/Suburban+Hospital/data=!4m7!3m6!1s0x89b7cbe77baa5f41:0x54579d527c71c71f!8m2!3d38.9978202!4d-77.110435!16s%2Fm%2F0yn_3xs!19sChIJQV-qe-fLt4kRH8dxfFKdV1Q?authuser=0&hl=en&rclk=1,Suburban Hospital,Hospital,38.99782,-77.110435,"8600 Old Georgetown Rd, Bethesda, MD 20814, United States"
https://www.google.com/maps/place/The+Royal+London+Hospital/data=!4m7!3m6!1s0x48761ccdbd26d0eb:0xd92bbddae9a3d32c!8m2!3d51.5174138!4d-0.059504!16zL20vMDJqZmx2!19sChIJ69Amvc0cdkgRLNOj6dq9K9k?authuser=0&hl=en&rclk=1,The Royal London Hospital,General hospital,51.517414,-0.059504,"Whitechapel Rd, London E1 1FR, United Kingdom"
https://www.google.com/maps/place/Hong+Ha+General+Hospital/data=!4m7!3m6!1s0x3135ab998d7fb6a5:0x931a195055921e1e!8m2!3d21.0267947!4d105.8390869!16s%2Fg%2F11h1tyqvn!19sChIJpbZ_jZmrNTERHh6SVVAZGpM?authuser=0&hl=en&rclk=1,Hong Ha General Hospital,General hospital,21.026795,105.839087,"16 P. Nguyễn Như Đổ, Văn Miếu, Đống Đa, Hà Nội 100000"
https://www.google.com/maps/place/NYC+Health+%2B+Hospitals+%2F+Bellevue./data=!4m7!3m6!1s0x89c2590c212fc7a9:0x67a293dafcc5f7e0!8m2!3d40.7396865!4d-73.9762044!16zL20vMDYwMGp0!19sChIJqccvIQxZwokR4PfF_NqTomc?authuser=0&hl=en&rclk=1,NYC Health + Hospitals / Bellevue.,Hospital,40.739686,-73.976204,"462 1st Ave., New York, NY 10016, United States"
https://www.google.com/maps/place/Vinmec+Central+Park+International+Hospital/data=!4m7!3m6!1s0x317528abfb30f74b:0x55f580f2f318c370!8m2!3d10.7939771!4d106.7203482!16s%2Fg%2F11cmfb3r__!19sChIJS_cw-6sodTERcMMY8_KA9VU?authuser=0&hl=en&rclk=1,Vinmec Central Park International Hospital,General hospital,10.793977,106.720348,"208 Đ. Nguyễn Hữu Cảnh, Vinhomes Tân Cảng, Bình Thạnh, Hồ Chí Minh 700000"
https://www.google.com/maps/place/Vinmec+International+Hospital/data=!4m7!3m6!1s0x3135ac04daecb877:0xef1e1e02b64fcb4c!8m2!3d20.9962152!4d105.8669144!16s%2Fg%2F1hm4rvfvb!19sChIJd7js2gSsNTERTMtPtgIeHu8?authuser=0&hl=en&rclk=1,Vinmec International Hospital,General hospital,20.996215,105.866914,"458 P. Minh Khai, Khu đô thị Times City, Hai Bà Trưng, Hà Nội 100000"
https://www.google.com/maps/place/University+Hospital+-+London+Health+Sciences+Centre/data=!4m7!3m6!1s0x882eee3e24e6df6d:0x703a642557b93d4c!8m2!3d43.0124531!4d-81.2745418!16s%2Fm%2F02pz8gg!19sChIJbd_mJD7uLogRTD25VyVkOnA?authuser=0&hl=en&rclk=1,University Hospital - London Health Sciences Centre,University hospital,43.012453,-81.274542,"339 Windermere Rd, London, ON N6A 5A5, Canada"
https://www.google.com/maps/place/Holy+Redeemer+Hospital/data=!4m7!3m6!1s0x89c6b117b1c1673f:0xa579aec8a42c72f6!8m2!3d40.109621!4d-75.0824198!16s%2Fg%2F1tfm2dlx!19sChIJP2fBsRexxokR9nIspMiueaU?authuser=0&hl=en&rclk=1,Holy Redeemer Hospital,General hospital,40.109621,-75.08242,"1648 Huntingdon Pike, Meadowbrook, PA 19046, United States"
https://www.google.com/maps/place/Community+Hospital/data=!4m7!3m6!1s0x8811e05c3f871a99:0xf5e3470548c47411!8m2!3d41.5502858!4d-87.5056641!16s%2Fg%2F1ym82ltmg!19sChIJmRqHP1zgEYgREXTESAVH4_U?authuser=0&hl=en&rclk=1,Community Hospital,General hospital,41.550286,-87.505664,"901 Macarthur Blvd, Munster, IN 46321, United States"
https://www.google.com/maps/place/Sibley+Memorial+Hospital/data=!4m7!3m6!1s0x89b7ca0733044b55:0xe38d9501f3252a8!8m2!3d38.936685!4d-77.1089582!16s%2Fm%2F02772rl!19sChIJVUsEMwfKt4kRqFIyH1DZOA4?authuser=0&hl=en&rclk=1,Sibley Memorial Hospital,Hospital,38.936685,-77.108958,"Sibley Mem Hospital, 5255 Loughboro Rd NW, Washington, DC 20016, United States"
https://www.google.com/maps/place/Houston+Methodist+Hospital/data=!4m7!3m6!1s0x8640c07130c55555:0xd0134feffe42ac0b!8m2!3d29.7099061!4d-95.3997186!16zL20vMGRmdm41!19sChIJVVXFMHHAQIYRC6xC_u9PE9A?authuser=0&hl=en&rclk=1,Houston Methodist Hospital,General hospital,29.709906,-95.399719,"6565 Fannin St, Houston, TX 77030, United States"
https://www.google.com/maps/place/Khoa+Ch%E1%BA%A5n+th%C6%B0%C6%A1ng+Ch%E1%BB%89nh+h%C3%ACnh+-+B%E1%BB%87nh+vi%E1%BB%87n+%C4%90a+khoa+Xanh+P%C3%B4n/data=!4m7!3m6!1s0x3135ab71a2f0eb55:0xbceb1481062009db!8m2!3d21.0312596!4d105.8355711!16s%2Fg%2F11v01sqpql!19sChIJVevwonGrNTER2wkgBoEU67w?authuser=0&hl=en&rclk=1,Khoa Chấn thương Chỉnh hình - Bệnh viện Đa khoa Xanh Pôn,General hospital,21.03126,105.835571,"Bệnh viện Đa khoa Xanh Pon, 12A đường Chu Văn An, Điện Biên, Ba Đình, Hà Nội"
https://www.google.com/maps/place/B%E1%BB%87nh+vi%E1%BB%87n+%C4%91a+khoa+hi%E1%BB%87p+ho%C3%A0/data=!4m7!3m6!1s0x313511763519fc1f:0x4a431df997dbd52b!8m2!3d21.3548901!4d105.9866397!16s%2Fg%2F11szd_9pv9!19sChIJH_wZNXYRNTERK9Xbl_kdQ0o?authuser=0&hl=en&rclk=1,Bệnh viện đa khoa hiệp hoà,General hospital,21.35489,105.98664,"Ngo108, Tổ dân phố số 3, Hiệp Hòa, Bắc Giang"
https://www.google.com/maps/place/B%E1%BB%87nh+vi%E1%BB%87n+%C4%90a+khoa+Qu%E1%BB%91c+t%E1%BA%BF+Vinmec+H%E1%BA%A1+Long/data=!4m7!3m6!1s0x314a584160c91447:0x633ee2d56c3d55e4!8m2!3d20.9520439!4d107.0720616!16s%2Fg%2F11clwps6y8!19sChIJRxTJYEFYSjER5FU9bNXiPmM?authuser=0&hl=en&rclk=1,Bệnh viện Đa khoa Quốc tế Vinmec Hạ Long,General hospital,20.952044,107.072062,"10A Lê Thánh Tông, Hồng Gai, Hạ Long, Quảng Ninh"
https://www.google.com/maps/place/Khoa+ch%E1%BA%A9n+%C4%91o%C3%A1n+h%C3%ACnh+%E1%BA%A3nh_+b%E1%BB%87nh+vi%E1%BB%87n+BTL/data=!4m7!3m6!1s0x31350129b96a884d:0x386e4953ccf9fe21!8m2!3d21.1611147!4d105.8495924!16s%2Fg%2F11h7ktl0hh!19sChIJTYhquSkBNTERIf75zFNJbjg?authuser=0&hl=en&rclk=1,Khoa chẩn đoán hình ảnh_ bệnh viện BTL,General hospital,21.161115,105.849592,"Tổ 18, Đông Anh, Hà Nội"
https://www.google.com/maps/place/B%E1%BB%87nh+Vi%E1%BB%87n+Giao+Th%C3%B4ng+V%E1%BA%ADn+T%E1%BA%A3i+V%C4%A9nh+Ph%C3%BAc+-+Khoa+Kh%C3%A1m+B%E1%BB%87nh/data=!4m7!3m6!1s0x3134fc7573e8fc1b:0x491e059277d95914!8m2!3d21.2339993!4d105.6893593!16s%2Fg%2F11b67mytm8!19sChIJG_zoc3X8NDERFFnZd5IFHkk?authuser=0&hl=en&rclk=1,Bệnh Viện Giao Thông Vận Tải Vĩnh Phúc - Khoa Khám Bệnh,General hospital,21.233999,105.689359,"6MMQ+HPX Bệnh Viện Giao Thông Vận Tải Vĩnh Phúc - Khoa Khám Bệnh, Đ. Hai Bà Trưng, Đạo Đức, Phúc Yên, Vĩnh Phúc"
https://www.google.com/maps/place/Dong+Anh+General+Hospital/data=!4m7!3m6!1s0x313500ddeda3e3e7:0xf5016d28393fd8cf!8m2!3d21.1393037!4d105.8534046!16s%2Fg%2F1vpfg074!19sChIJ5-Oj7d0ANTERz9g_OShtAfU?authuser=0&hl=en&rclk=1,Dong Anh General Hospital,General hospital,21.139304,105.853405,"48 Đ. Đản Dị, Uy Nỗ, Đông Anh, Hà Nội"
https://www.google.com/maps/place/Duc+Giang+General+Hospital/data=!4m7!3m6!1s0x3135a997f34f595d:0x734b06579db4d270!8m2!3d21.0613454!4d105.8983239!16s%2Fg%2F1tg7pgx7!19sChIJXVlP85epNTERcNK0nVcGS3M?authuser=0&hl=en&rclk=1,Duc Giang General Hospital,General hospital,21.061345,105.898324,"54 P. Trường Lâm, Đức Giang, Long Biên, Hà Nội"
https://www.google.com/maps/place/Pho+Yen+District+Oriental+Medicine/data=!4m7!3m6!1s0x31351ed307f55f8b:0x286a19ee62ab!8m2!3d21.4145048!4d105.8730678!16s%2Fg%2F1pzplsh_f!19sChIJi1_1B9MeNTERq2LuGWooAAA?authuser=0&hl=en&rclk=1,Pho Yen District Oriental Medicine,General hospital,21.414505,105.873068,"CV7F+R64 Pho Yen District Oriental Medicine, Ba Hàng, Phổ Yên, Thái Nguyên"
https://www.google.com/maps/place/B%E1%BB%87nh+Vi%E1%BB%87n+%C4%90a+Khoa+Qu%E1%BB%91c+T%E1%BA%BF/data=!4m7!3m6!1s0x314a7b6fbcc499b3:0x6e6f028f6d04fbbf!8m2!3d20.8532111!4d106.672751!16s%2Fg%2F11kqgw0nls!19sChIJs5nEvG97SjERv_sEbY8Cb24?authuser=0&hl=en&rclk=1,Bệnh Viện Đa Khoa Quốc Tế,Specialized hospital,20.853211,106.672751,"1 P. Nhà Thương, Cát Dài, Lê Chân, Hải Phòng"
https://www.google.com/maps/place/Thu+Cuc+International+General+Hospital/data=!4m7!3m6!1s0x3135ab106314aebf:0x850c9776536470f4!8m2!3d21.0451282!4d105.8144674!16s%2Fg%2F1hf1xs8y8!19sChIJv64UYxCrNTER9HBkU3aXDIU?authuser=0&hl=en&rclk=1,Thu Cuc International General Hospital,General hospital,21.045128,105.814467,"286-294 Đ. Thụy Khuê, Thuỵ Khuê, Tây Hồ, Hà Nội 100000"
https://www.google.com/maps/place/Hospital+Tien+Lu/data=!4m7!3m6!1s0x3135bf8b293a9995:0x5541e093d7c3fb17!8m2!3d20.7056981!4d106.1342366!16s%2Fg%2F1pzph3b71!19sChIJlZk6KYu_NTERF_vD15PgQVU?authuser=0&hl=en&rclk=1,Hospital Tien Lu,General hospital,20.705698,106.134237,"Quốc lộ 39B, Dị Chế, Tiên Lữ, Hưng Yên"
https://www.google.com/maps/place/Trung+T%C3%A2m+Ch%C4%83m+S%C3%B3c+S%E1%BB%A9c+Kh%E1%BB%8Fe+Sinh+S%E1%BA%A3n+T%E1%BB%89nh+V%C4%A9nh+Ph%C3%BAc/data=!4m7!3m6!1s0x3134facaa4756823:0x7865ac09bcd1af5c!8m2!3d21.3061543!4d105.6187905!16s%2Fg%2F1pzvq1jxr!19sChIJI2h1pMr6NDERXK_RvAmsZXg?authuser=0&hl=en&rclk=1,Trung Tâm Chăm Sóc Sức Khỏe Sinh Sản Tỉnh Vĩnh Phúc,General hospital,21.306154,105.61879,"8J49+FG7 Trung Tâm Chăm Sóc Sức Khỏe Sinh Sản Tỉnh Vĩnh Phúc, Đường Mê Linh, Phường Khai Quang, Thành Phố Vĩnh Yên, Tỉnh Vĩnh Phúc, Việt Nam, Khai Quang, Phường Khai Quang, Thành Phố Vĩnh Yên, Vĩnh Phúc"
https://www.google.com/maps/place/Hoang+Minh+Clinic/data=!4m7!3m6!1s0x3135126aaaaaaaab:0x599763423610fc43!8m2!3d21.2858633!4d106.0875326!16s%2Fg%2F1pzs8lr5g!19sChIJq6qqqmoSNTERQ_wQNkJjl1k?authuser=0&hl=en&rclk=1,Hoang Minh Clinic,General hospital,21.285863,106.087533,"Xã Hoàng Ninh, Huyện Việt Yên, Bích Sơn, Việt Yên, Bắc Giang"
https://www.google.com/maps/place/Dong+Da+General+Hospital/data=!4m7!3m6!1s0x3135ab7f2d65d68d:0xfc36f119646749c6!8m2!3d21.0155443!4d105.827184!16s%2Fg%2F11bxfzv34n!19sChIJjdZlLX-rNTERxklnZBnxNvw?authuser=0&hl=en&rclk=1,Dong Da General Hospital,General hospital,21.015544,105.827184,"192 Ng. 180 P. Nguyễn Lương Bẳng, Quang Trung, Đống Đa, Hà Nội"
https://www.google.com/maps/place/Nha+khoa/data=!4m7!3m6!1s0x3135036f59051c6f:0x9f3282b05cf0e820!8m2!3d21.2115864!4d105.8671954!16s%2Fg%2F11hzpkn3sw!19sChIJbxwFWW8DNTERIOjwXLCCMp8?authuser=0&hl=en&rclk=1,Nha khoa,General hospital,21.211586,105.867195,"6V68+JVP Nha khoa, Đông Xuân, Sóc Sơn, Hà Nội"
https://www.google.com/maps/place/Minh+Tam+Clinic/data=!4m7!3m6!1s0x3135bfe1f187133d:0x2dabb46ef7d32707!8m2!3d20.7181875!4d106.156997!16s%2Fg%2F1pzyl1mkx!19sChIJPROH8eG_NTERByfT9260qy0?authuser=0&hl=en&rclk=1,Minh Tam Clinic,General hospital,20.718187,106.156997,"P594+7QH Minh Tam Clinic, Cau Cap Village, Doan Dao Commune, Phu Cu District, Đoàn Đào, Phù Cừ, Hưng Yên"
https://www.google.com/maps/place/Vietnam+Soviet+Friendship+Hospital/data=!4m7!3m6!1s0x3135abf04fdd76dd:0xbc8092dd13724ddf!8m2!3d21.0159436!4d105.8622649!16s%2Fg%2F11fz9j_kvq!19sChIJ3XbdT_CrNTER301yE92SgLw?authuser=0&hl=en&rclk=1,Vietnam Soviet Friendship Hospital,General hospital,21.015944,105.862265,"01 Đ. Trần Khánh Dư, Bạch Đằng, Hai Bà Trưng, Hà Nội"
https://www.google.com/maps/place/Gia+Ng%C6%B0+Restaurant/data=!4m7!3m6!1s0x3135ab332822ee75:0x8cb9f2e1a400374b!8m2!3d21.0329966!4d105.8526794!16s%2Fg%2F11stj7ws4r!19sChIJde4iKDOrNTERSzcApOHyuYw?authuser=0&hl=en&rclk=1,Gia Ngư Restaurant,Restaurant,21.032997,105.852679,"27-29 Gia Ngu Street, Hoan Kiem Dist, Hanoi City, Hà Nội 100000"
https://www.google.com/maps/place/VIET+Restaurant+Hanoi/data=!4m7!3m6!1s0x3135abb5d8187c71:0xdf0fa0bcfb402ec!8m2!3d21.031112!4d105.8466337!16s%2Fg%2F11f7r6zxg5!19sChIJcXwY2LWrNTER7AK0zwv68A0?authuser=0&hl=en&rclk=1,VIET Restaurant Hanoi,Restaurant,21.031112,105.846634,"JM Marvel Hotel, 16 P. Hàng Da, Hàng Bông, Hoàn Kiếm, Hà Nội 100000"
https://www.google.com/maps/place/Viet+Restaurant+Hang+Bong/data=!4m7!3m6!1s0x3135abe916e15f63:0x250b8c631328e80c!8m2!3d21.0307869!4d105.8482632!16s%2Fg%2F11l5snncrn!19sChIJY1_hFumrNTERDOgoE2OMCyU?authuser=0&hl=en&rclk=1,Viet Restaurant Hang Bong,Vietnamese restaurant,21.030787,105.848263,"41 P. Hàng Bông, Hàng Trống, Hoàn Kiếm, Hà Nội 11000"
https://www.google.com/maps/place/Hanoi+Corner+Restaurant/data=!4m7!3m6!1s0x3135bdd1fd341f95:0x34c17afcdfe4b1a2!8m2!3d21.0334609!4d105.8538804!16s%2Fg%2F11qs2yktql!19sChIJlR80_dG9NTERorHk3_x6wTQ?authuser=0&hl=en&rclk=1,Hanoi Corner Restaurant,Restaurant,21.033461,105.85388,"11 P. Hàng Bè, Hàng Bạc, Hoàn Kiếm, Hà Nội 11011"
https://www.google.com/maps/place/M%E1%BA%B8T+Vietnamese+restaurant+%26+Vegetarian+Met+4/data=!4m7!3m6!1s0x3135ab28c10b54fb:0x40e3499b1cb4eba4!8m2!3d21.0334483!4d105.8538563!16s%2Fg%2F11kpdccqfk!19sChIJ-1QLwSirNTERpOu0HJtJ40A?authuser=0&hl=en&rclk=1,MẸT Vietnamese restaurant & Vegetarian Met 4,Vietnamese restaurant,21.033448,105.853856,"13 P. Hàng Bè, Hàng Bạc, Hoàn Kiếm, Hà Nội"
https://www.google.com/maps/place/Vietnamese+Lantern+Restaurant/data=!4m7!3m6!1s0x3135abc1eae6d1c7:0x386a93b2eb0eced!8m2!3d21.0336559!4d105.8519625!16s%2Fg%2F11srwq_k33!19sChIJx9Hm6sGrNTER7eywLjuphgM?authuser=0&hl=en&rclk=1,Vietnamese Lantern Restaurant,Restaurant,21.033656,105.851962,"4B P. Đinh Liệt, Hàng Bạc, Hoàn Kiếm, Hà Nội 100000"
https://www.google.com/maps/place/M%E1%BA%B8T+Vietnamese+restaurant+%26+Vegetarian+Food+3/data=!4m7!3m6!1s0x3135ab7f21065107:0x77777fbbc86b65f4!8m2!3d21.0341334!4d105.8512454!16s%2Fg%2F11ts3_jvc3!19sChIJB1EGIX-rNTER9GVryLt_d3c?authuser=0&hl=en&rclk=1,MẸT Vietnamese restaurant & Vegetarian Food 3,Vietnamese restaurant,21.034133,105.851245,"110 P. Hàng Bạc, Hàng Đào, Hoàn Kiếm, Hà Nội 100000"
https://www.google.com/maps/place/h%C3%A0ng+qu%C3%A0+Restaurant+-+Asian+Fusion+Food+%26+Coffee/data=!4m7!3m6!1s0x3135ab9ec84fe525:0x18ed3866dee63211!8m2!3d21.0310306!4d105.8488341!16s%2Fg%2F11rz3tshd1!19sChIJJeVPyJ6rNTERETLm3mY47Rg?authuser=0&hl=en&rclk=1,hàng quà Restaurant - Asian Fusion Food & Coffee,Vietnamese restaurant,21.031031,105.848834,"13 P. Hàng Bông, Hàng Trống, Hoàn Kiếm, Hà Nội"
https://www.google.com/maps/place/M%E1%BA%B8T+Vietnamese+Restaurant+%26+Vegetarian+Met+2/data=!4m7!3m6!1s0x3135ab2c7beb29ad:0xa0c930717b21b67a!8m2!3d21.0327784!4d105.850361!16s%2Fg%2F11szbz_z8y!19sChIJrSnreyyrNTERerYhe3EwyaA?authuser=0&hl=en&rclk=1,MẸT Vietnamese Restaurant & Vegetarian Met 2,Vietnamese restaurant,21.032778,105.850361,"42 P. Lương Văn Can, Hàng Gai, Hoàn Kiếm, Hà Nội 11015"
https://www.google.com/maps/place/San+Dining/data=!4m7!3m6!1s0x3135ab01b3cfd597:0xb816c9d2425a22bb!8m2!3d21.0327248!4d105.8529474!16s%2Fg%2F11kqsdtyf3!19sChIJl9XPswGrNTERuyJaQtLJFrg?authuser=0&hl=en&rclk=1,San Dining,Restaurant,21.032725,105.852947,"2 Ng. Cầu Gỗ, Hàng Bạc, Hoàn Kiếm, Hà Nội 10000"
https://www.google.com/maps/place/Hanoi+Food+Culture+Restaurant+%26+Cooking+Class/data=!4m7!3m6!1s0x3135abc092fccf05:0xdc6b203577c818ef!8m2!3d21.0340925!4d105.8538401!16s%2Fg%2F11c5bjtpbd!19sChIJBc_8ksCrNTER7xjIdzUga9w?authuser=0&hl=en&rclk=1,Hanoi Food Culture Restaurant & Cooking Class,Vietnamese restaurant,21.034092,105.85384,"60 Ng. Phất Lộc, Hàng Buồm, Hoàn Kiếm, Hà Nội"
https://www.google.com/maps/place/Mau+Restaurant+Vietnamese+%26+Vegetarian+Food/data=!4m7!3m6!1s0x3135ab01331a7b73:0xe14092b9516065dc!8m2!3d21.0341025!4d105.8516963!16s%2Fg%2F11g0d070w0!19sChIJc3saMwGrNTER3GVgUbmSQOE?authuser=0&hl=en&rclk=1,Mau Restaurant Vietnamese & Vegetarian Food,Restaurant,21.034102,105.851696,"88, Hàng Bạc, Hoàn Kiếm, Hà Nội 10000"
https://www.google.com/maps/place/India+Gate+H%C3%A0+N%E1%BB%99i+Restaurant/data=!4m7!3m6!1s0x3135ab452c9f4f57:0x4b1ca09d59d50e0e!8m2!3d21.0323391!4d105.8551771!16s%2Fg%2F11k4zntc8l!19sChIJV0-fLEWrNTERDg7VWZ2gHEs?authuser=0&hl=en&rclk=1,India Gate Hà Nội Restaurant,Indian restaurant,21.032339,105.855177,"15 P. Hàng Thùng, P, Hoàn Kiếm, Hà Nội 100000"
https://www.google.com/maps/place/Garden+House+Villa+Restaurant/data=!4m7!3m6!1s0x3135abc060581f45:0x48e318d17d2e2c4a!8m2!3d21.0347478!4d105.8529335!16s%2Fg%2F11f2sn90vq!19sChIJRR9YYMCrNTERSiwufdEY40g?authuser=0&hl=en&rclk=1,Garden House Villa Restaurant,Vietnamese restaurant,21.034748,105.852933,"15 P. Lương Ngọc Quyến, Hàng Buồm, Hoàn Kiếm, Hà Nội 100000"
https://www.google.com/maps/place/QU%C3%81N+QU%C3%8A+RESTAURANT/data=!4m7!3m6!1s0x3135ab39da59c027:0xa349a135ada52300!8m2!3d21.0345173!4d105.8533572!16s%2Fg%2F11f8h9tw59!19sChIJJ8BZ2jmrNTERACOlrTWhSaM?authuser=0&hl=en&rclk=1,QUÁN QUÊ RESTAURANT,Restaurant,21.034517,105.853357,"80 P. Mã Mây, Hàng Buồm, Hoàn Kiếm, Hà Nội"
https://www.google.com/maps/place/Downtown+Cafe+%26+Restaurant/data=!4m7!3m6!1s0x3135abc07c1288cf:0xa5558d8f1601a49f!8m2!3d21.0343861!4d105.8547512!16s%2Fg%2F11f2w608y5!19sChIJz4gSfMCrNTERn6QBFo-NVaU?authuser=0&hl=en&rclk=1,Downtown Cafe & Restaurant,Restaurant,21.034386,105.854751,"07 P. Hàng Muối, St, Hoàn Kiếm, Hà Nội 100000"
https://www.google.com/maps/place/MASHA+ALLAH+INDIAN+RESTAURANT/data=!4m7!3m6!1s0x3135ab34e1638707:0x99dc0a97bc0a1bd4!8m2!3d21.0349275!4d105.8515767!16s%2Fg%2F11vyzvmqgn!19sChIJB4dj4TSrNTER1BsKvJcK3Jk?authuser=0&hl=en&rclk=1,MASHA ALLAH INDIAN RESTAURANT,Indian restaurant,21.034927,105.851577,"44 Lương Ngọc Quyến Hàng Buồm ward Hoàn Kiếm district Ha Noi, Hanoi City, 10000"
https://www.google.com/maps/place/Sen+Trang+An+Vietnamese+Restaurant/data=!4m7!3m6!1s0x3135ab182b32beab:0x1637f29c137eeb31!8m2!3d21.032733!4d105.8538665!16s%2Fg%2F11h1t66zv7!19sChIJq74yKxirNTERMet-E5zyNxY?authuser=0&hl=en&rclk=1,Sen Trang An Vietnamese Restaurant,Vietnamese restaurant,21.032733,105.853866,"47B P. Hàng Bè, Hàng Bạc, Hoàn Kiếm, Hà Nội 100000"
https://www.google.com/maps/place/The+Gourmet+Corner+Restaurant/data=!4m7!3m6!1s0x3135ab11af76bf79:0xfba1419ffe4751f6!8m2!3d21.0345387!4d105.8520469!16s%2Fg%2F11jgj579t9!19sChIJeb92rxGrNTER9lFH_p9Bofs?authuser=0&hl=en&rclk=1,The Gourmet Corner Restaurant,Restaurant,21.034539,105.852047,"22 Ta Hien street Hoan Kiem district Hanoi City, 10000"
https://www.google.com/maps/place/M%E1%BA%B8T+Vietnamese+restaurant+%26+Vegetarian+Food+1/data=!4m7!3m6!1s0x3135ab49e8fb3385:0xec8c09bc5fcd7c39!8m2!3d21.030751!4d105.8495942!16s%2Fg%2F11h0t6ky9k!19sChIJhTP76EmrNTEROXzNX7wJjOw?authuser=0&hl=en&rclk=1,MẸT Vietnamese restaurant & Vegetarian Food 1,Vietnamese restaurant,21.030751,105.849594,"29 P. Hàng Trống, Hàng Trống, Hoàn Kiếm, Hà Nội 11000"
https://www.google.com/maps/place/Gujarat+Indian+Restaurant/data=!4m7!3m6!1s0x3135ab86ae9e9f27:0x57c8c5faf76403fa!8m2!3d21.0349076!4d105.8542525!16s%2Fg%2F11y1v88dsq!19sChIJJ5-eroarNTER-gNk9_rFyFc?authuser=0&hl=en&rclk=1,Gujarat Indian Restaurant,Restaurant,21.034908,105.854253,"2 phố lương ngọc quyến, hàng buồm, quận hoàn kiếm ,hà nội ha noi, Hanoi City"
https://www.google.com/maps/place/Comet+Restaurant/data=!4m7!3m6!1s0x3135abf5041bf3eb:0x818ae871d845bf55!8m2!3d21.0324949!4d105.853784!16s%2Fg%2F11s5v4qrjh!19sChIJ6_MbBPWrNTERVb9F2HHoioE?authuser=0&hl=en&rclk=1,Comet Restaurant,Fusion restaurant,21.032495,105.853784,"Floor 11, 61 Hàng Bè Hà Nội Hanoi City, 100000"
https://www.google.com/maps/place/May+De+Cuisine+-+Vietnamese+Restaurant/data=!4m7!3m6!1s0x3135ab6791557ce7:0xb486e0243a68f5af!8m2!3d21.034036!4d105.8534628!16s%2Fg%2F11ldsl993d!19sChIJ53xVkWerNTERr_VoOiTghrQ?authuser=0&hl=en&rclk=1,May De Cuisine - Vietnamese Restaurant,Restaurant,21.034036,105.853463,"107 P. Mã Mây, Hàng Buồm, Hoàn Kiếm, Hà Nội 100000"
https://www.google.com/maps/place/Lake+View+Side+Restaurant/data=!4m7!3m6!1s0x3135abe5267cb769:0x91642bb8eda52fac!8m2!3d21.0305893!4d105.8540387!16s%2Fg%2F11h3g98jnx!19sChIJabd8JuWrNTERrC-l7bgrZJE?authuser=0&hl=en&rclk=1,Lake View Side Restaurant,Vietnamese restaurant,21.030589,105.854039,"47 P. Hàng Dầu, Lý Thái Tổ, Hoàn Kiếm, Hà Nội 100000"
https://www.google.com/maps/place/M%E1%BA%B8T+Vietnamese+restaurant+%26+Vegetarian+Food+5/data=!4m7!3m6!1s0x3135ab2f43127da3:0x971a408cf529ebe1!8m2!3d21.0314213!4d105.8491368!16s%2Fg%2F11svfkj_nk!19sChIJo30SQy-rNTER4esp9YxAGpc?authuser=0&hl=en&rclk=1,MẸT Vietnamese restaurant & Vegetarian Food 5,Vietnamese restaurant,21.031421,105.849137,"110 P. Hàng Gai, Hàng Gai, Hoàn Kiếm, Hà Nội 100000"
https://www.google.com/maps/place/Nh%C3%A0+H%C3%A0ng+Little+Hanoi/data=!4m7!3m6!1s0x3135abbf5c8f55b3:0x16a3b970d65321e7!8m2!3d21.033067!4d105.8540332!16s%2Fg%2F1tdf8l3m!19sChIJs1WPXL-rNTER5yFT1nC5oxY?authuser=0&hl=en&rclk=1,Nhà Hàng Little Hanoi,Vietnamese restaurant,21.033067,105.854033,"25 P. Hàng Bè, Hàng Bạc, Hoàn Kiếm, Hà Nội 10000"
https://www.google.com/maps/place/Cloud+Nine+Restaurant/data=!4m7!3m6!1s0x3135abbeb08a216d:0x4e995bf3b755bc90!8m2!3d21.0330823!4d105.8538995!16s%2Fg%2F11fvjd84xh!19sChIJbSGKsL6rNTERkLxVt_NbmU4?authuser=0&hl=en&rclk=1,Cloud Nine Restaurant,Restaurant,21.033082,105.853899,"27 P. Hàng Bè, Phố cổ Hà Nội, Hoàn Kiếm, Hà Nội 100000"
https://www.google.com/maps/place/New+Day+Restaurant/data=!4m7!3m6!1s0x3135abc0979b6e2d:0x5b9541ed6b14710e!8m2!3d21.0346612!4d105.8533002!16s%2Fg%2F1thvddgd!19sChIJLW6bl8CrNTERDnEUa-1BlVs?authuser=0&hl=en&rclk=1,New Day Restaurant,Vietnamese restaurant,21.034661,105.8533,"72 P. Mã Mây, Hàng Buồm, Hoàn Kiếm, Hà Nội 100000"
https://www.google.com/maps/place/La+Passion+Restaurant/data=!4m7!3m6!1s0x3135abffa3dcb8eb:0xdb72be6087fba1e!8m2!3d21.0322512!4d105.8542683!16s%2Fg%2F11t7jz0y8q!19sChIJ67jco_-rNTERHrp_COYrtw0?authuser=0&hl=en&rclk=1,La Passion Restaurant,Restaurant,21.032251,105.854268,"26 P. Hàng Thùng, Hàng Bạc, Hoàn Kiếm, Hà Nội 10000"
https://www.google.com/maps/place/C%C3%A1i+M%C3%A2m+Restaurant/data=!4m7!3m6!1s0x3135ab584e0a7f83:0xe7dd32745c4f7dbe!8m2!3d21.0362239!4d105.8527792!16s%2Fg%2F11v56l4gv1!19sChIJg38KTlirNTERvn1PXHQy3ec?authuser=0&hl=en&rclk=1,Cái Mâm Restaurant,Vietnamese restaurant,21.036224,105.852779,"3 Floors, 23 P. Đào Duy Từ, Hàng Buồm, Hoàn Kiếm, Hà Nội"
https://www.google.com/maps/place/Red+Bean+Central/data=!4m7!3m6!1s0x3135abc2085a5d0b:0x2828505a07edc104!8m2!3d21.0320261!4d105.855027!16s%2Fg%2F11j6frpv6f!19sChIJC11aCMKrNTERBMHtB1pQKCg?authuser=0&hl=en&rclk=1,Red Bean Central,Restaurant,21.032026,105.855027,"St, No 21 P. Hàng Thùng, Phố cổ Hà Nội, Hoàn Kiếm, Hà Nội 100000"
https://www.google.com/maps/place/Momento+Restaurant+by+La+Nueva/data=!4m7!3m6!1s0x3135abb0c8bd0c97:0x937267c9fe202fc7!8m2!3d21.0315902!4d105.8549697!16s%2Fg%2F11sh58j6h9!19sChIJlwy9yLCrNTERxy8g_slncpM?authuser=0&hl=en&rclk=1,Momento Restaurant by La Nueva,Restaurant,21.03159,105.85497,"32 P. Lò Sũ, Lý Thái Tổ, Hoàn Kiếm, Hà Nội"
https://www.google.com/maps/place/Little+Hanoi+Restaurant+%28Location+1%29/data=!4m7!3m6!1s0x3135ab86dc6e4265:0x4572eadd42f6c644!8m2!3d21.0334527!4d105.8537377!16s%2Fg%2F11kk8gh5_8!19sChIJZUJu3IarNTERRMb2Qt3qckU?authuser=0&hl=en&rclk=1,Little Hanoi Restaurant (Location 1),Restaurant,21.033453,105.853738,"16 P. Hàng Bè, Hàng Bạc, Hoàn Kiếm, Hà Nội 10000"
https://www.google.com/maps/place/The+Symphony+Restaurant/data=!4m7!3m6!1s0x3135ab3cc99bc007:0x17d12a23a5ebf949!8m2!3d21.0320964!4d105.8536575!16s%2Fg%2F11s86qjqny!19sChIJB8CbyTyrNTERSfnrpSMq0Rc?authuser=0&hl=en&rclk=1,The Symphony Restaurant,Restaurant,21.032096,105.853657,"No 01 P. Cầu Gỗ, Hàng Bạc, Hoàn Kiếm, Hà Nội 100000"
https://www.google.com/maps/place/Hello+Hanoi+Restaurant/data=!4m7!3m6!1s0x3135ab006f7fd25b:0xa9b1841dd03f9fed!8m2!3d21.0328389!4d105.8519689!16s%2Fg%2F11vm5yg5fq!19sChIJW9J_bwCrNTER7Z8_0B2Esak?authuser=0&hl=en&rclk=1,Hello Hanoi Restaurant,Restaurant,21.032839,105.851969,"7B P. Đinh Liệt, Hàng Đào, Hoàn Kiếm, Hà Nội 10000"
https://www.google.com/maps/place/S+9+Duck+restaurant/data=!4m7!3m6!1s0x3135ab4d8ac4872f:0x30d7fdfb660cd460!8m2!3d21.0326111!4d105.8538762!16s%2Fg%2F11t8691s8y!19sChIJL4fEik2rNTERYNQMZvv91zA?authuser=0&hl=en&rclk=1,S 9 Duck restaurant,Restaurant,21.032611,105.853876,"45 P. Hàng Bè, Hàng Bạc, Hoàn Kiếm, Hà Nội 100000"
https://www.google.com/maps/place/Sachiko+Restaurant/data=!4m7!3m6!1s0x3135ab95db092549:0x2590312fbaa40b45!8m2!3d21.0324516!4d105.8505543!16s%2Fg%2F11t1jnsxk7!19sChIJSSUJ25WrNTERRQukui8xkCU?authuser=0&hl=en&rclk=1,Sachiko Restaurant,Restaurant,21.032452,105.850554,"54 P. Lương Văn Can, Phố cổ Hà Nội, Hoàn Kiếm, Hà Nội 100000"
https://www.google.com/maps/place/Aubergine+cafe+Restaurant/data=!4m7!3m6!1s0x3135abc0f52593e7:0x99d6933fa5b41f74!8m2!3d21.0334215!4d105.8537461!16s%2Fg%2F11btrrflgw!19sChIJ55Ml9cCrNTERdB-0pT-T1pk?authuser=0&hl=en&rclk=1,Aubergine cafe Restaurant,Vietnamese restaurant,21.033421,105.853746,"16 P. Hàng Bè, Phố cổ Hà Nội, Hoàn Kiếm, Hà Nội 100000"
https://www.google.com/maps/place/Banc%C3%B4ng+Cafe+%26+Restaurant/data=!4m7!3m6!1s0x3135abb2f0780dd1:0xe1da2a3e23851876!8m2!3d21.0337234!4d105.8519764!16s%2Fg%2F11h5411lf0!19sChIJ0Q148LKrNTERdhiFIz4q2uE?authuser=0&hl=en&rclk=1,Bancông Cafe & Restaurant,Restaurant,21.033723,105.851976,"Số 2 P. Đinh Liệt, Hàng Đào, Hoàn Kiếm, Hà Nội 100000"
https://www.google.com/maps/place/Cumulus+Restaurant/data=!4m7!3m6!1s0x3135ab70b6170b23:0x7e359ab5618dc508!8m2!3d21.0327356!4d105.8537667!16s%2Fg%2F11ghtd09db!19sChIJIwsXtnCrNTERCMWNYbWaNX4?authuser=0&hl=en&rclk=1,Cumulus Restaurant,Vietnamese restaurant,21.032736,105.853767,"45a P. Hàng Bè, Hàng Bạc, Hoàn Kiếm, Hà Nội 100000"
https://www.google.com/maps/place/Hoang%27s+Restaurant+-+Vietnamese+Cuisine+%26+Vegan+Food/data=!4m7!3m6!1s0x3135ab1b691d1f19:0x3229da44485fd88!8m2!3d21.0357151!4d105.8513849!16s%2Fg%2F11gk3w5cc3!19sChIJGR8daRurNTERiP2FRKSdIgM?authuser=0&hl=en&rclk=1,Hoang's Restaurant - Vietnamese Cuisine & Vegan Food,Vietnamese restaurant,21.035715,105.851385,"54 P. Hàng Buồm, Hàng Buồm, Hoàn Kiếm, Hà Nội 100000"
https://www.google.com/maps/place/AAHAR+INDIAN+RESTAURANT/data=!4m7!3m6!1s0x3135ab47157fac93:0xea98988943852907!8m2!3d21.0321957!4d105.850268!16s%2Fg%2F11sb0kpmks!19sChIJk6x_FUerNTERBymFQ4mYmOo?authuser=0&hl=en&rclk=1,AAHAR INDIAN RESTAURANT,Restaurant,21.032196,105.850268,"54 P. Hàng Gai, Hàng Gai, Hoàn Kiếm, Hà Nội 110000"
https://www.google.com/maps/place/Duong%27s+2+Restaurant+%26+Cooking+Class/data=!4m7!3m6!1s0x3135ab40df73a595:0x9ca85cd2cce95de9!8m2!3d21.0341113!4d105.8534409!16s%2Fg%2F11h40sbwt5!19sChIJlaVz30CrNTER6V3pzNJcqJw?authuser=0&hl=en&rclk=1,Duong's 2 Restaurant & Cooking Class,Restaurant,21.034111,105.853441,"101 P. Mã Mây, Hàng Buồm, Hoàn Kiếm, Hà Nội 10000"
https://www.google.com/maps/place/Panorama+restaurant/data=!4m7!3m6!1s0x3135abc029988035:0xcfcb6e633ab4ea57!8m2!3d21.0308412!4d105.8550517!16s%2Fg%2F11dy_pk9mr!19sChIJNYCYKcCrNTERV-q0OmNuy88?authuser=0&hl=en&rclk=1,Panorama restaurant,Restaurant,21.030841,105.855052,"13 P. Lý Thái Tổ, Lý Thái Tổ, Hoàn Kiếm, Hà Nội"
https://www.google.com/maps/place/Au+Lac+Family+Restaurant/data=!4m7!3m6!1s0x3135ab04e462394f:0x10c56f1c40596603!8m2!3d21.0295321!4d105.8487519!16s%2Fg%2F11h15x66mf!19sChIJTzli5ASrNTERA2ZZQBxvxRA?authuser=0&hl=en&rclk=1,Au Lac Family Restaurant,Restaurant,21.029532,105.848752,"23 Ng. Huyện, Hàng Trống, Hoàn Kiếm, Hà Nội 100000"
https://www.google.com/maps/place/Royal+Rajasthan+Indian+Restaurant+Hanoi+since+1992/data=!4m7!3m6!1s0x3135ab476f5894c5:0xcfe1dccc6c1f747a!8m2!3d21.0316629!4d105.8488288!16s%2Fg%2F11k9s7n7t_!19sChIJxZRYb0erNTERenQfbMzc4c8?authuser=0&hl=en&rclk=1,Royal Rajasthan Indian Restaurant Hanoi since 1992,Restaurant,21.031663,105.848829,"42 P. Hàng Hòm, Hàng Gai, Hoàn Kiếm, Hà Nội 100000"
https://www.google.com/maps/place/May+Vietnamese+Restaurant+%26+Vegetarian+Food/data=!4m7!3m6!1s0x3135ab923838e2f5:0x98e9a58ca215fafc!8m2!3d21.0352091!4d105.8534858!16s%2Fg%2F11vkp__4s8!19sChIJ9eI4OJKrNTER_PoVooyl6Zg?authuser=0&hl=en&rclk=1,May Vietnamese Restaurant & Vegetarian Food,Restaurant,21.035209,105.853486,"51 P. Mã Mây, Hàng Buồm, Hoàn Kiếm, Hà Nội 100000"
https://www.google.com/maps/place/H%E1%BA%A3i+S%E1%BA%A3n+Seafood+68+Restaurant+Hanoi+Old+Quarter/data=!4m7!3m6!1s0x3135abc0a3264607:0x43ad564fc6b3e2e9!8m2!3d21.0349649!4d105.8531301!16s%2Fg%2F11bccm3n_w!19sChIJB0Ymo8CrNTER6eKzxk9WrUM?authuser=0&hl=en&rclk=1,Hải Sản Seafood 68 Restaurant Hanoi Old Quarter,Seafood restaurant,21.034965,105.85313,"68 P. Đào Duy Từ, Hàng Buồm, Hoàn Kiếm, Hà Nội 100000"
https://www.google.com/maps/place/Vietnamese+Cuisine+%26+Noodles+Restaurant/data=!4m7!3m6!1s0x3135ab4afd5c6169:0x64a52e04e8b26c0a!8m2!3d21.0324516!4d105.8505543!16s%2Fg%2F11v3qn3f6j!19sChIJaWFc_UqrNTERCmyy6AQupWQ?authuser=0&hl=en&rclk=1,Vietnamese Cuisine & Noodles Restaurant,Tiffin center,21.032452,105.850554,"54 P. Lương Văn Can, Hàng Gai, Hoàn Kiếm, Hà Nội 100000"
https://www.google.com/maps/place/The+Rhythms+Restaurant/data=!4m7!3m6!1s0x3135abd6558f7729:0x3e41bd71e0c511de!8m2!3d21.0311489!4d105.8541259!16s%2Fg%2F11h7v59jl0!19sChIJKXePVdarNTER3hHF4HG9QT4?authuser=0&hl=en&rclk=1,The Rhythms Restaurant,Fine dining restaurant,21.031149,105.854126,"33-35 P. Hàng Dầu, street, Hoàn Kiếm, Hà Nội 100000"
https://www.google.com/maps/place/Aalishan+Indian+Restaurant/data=!4m7!3m6!1s0x3135abb052867adb:0x14eba7da2f922f84!8m2!3d21.0320899!4d105.8542483!16s%2Fg%2F11qnl0nm46!19sChIJ23qGUrCrNTERhC-SL9qn6xQ?authuser=0&hl=en&rclk=1,Aalishan Indian Restaurant,Indian restaurant,21.03209,105.854248,"37B P. Hàng Thùng, Hàng Bạc, Hoàn Kiếm, Hà Nội"
https://www.google.com/maps/place/Cinnamon+Restaurant/data=!4m7!3m6!1s0x3135ab957f9d8239:0x9752a4d364939efd!8m2!3d21.0359806!4d105.8525693!16s%2Fg%2F11d_d1q3db!19sChIJOYKdf5WrNTER_Z6TZNOkUpc?authuser=0&hl=en&rclk=1,Cinnamon Restaurant,Vietnamese restaurant,21.035981,105.852569,"8 P. Hàng Buồm, Hàng Buồm, Hoàn Kiếm, Hà Nội"
https://www.google.com/maps/place/V%C5%A9+Ki%E1%BB%81u+T%C3%BA+Seafood+Restaurant/data=!4m7!3m6!1s0x3135ab550551a367:0xfa0e4fc2afa57af1!8m2!3d21.0323167!4d105.8537768!16s%2Fg%2F11y4nfjv30!19sChIJZ6NRBVWrNTER8Xqlr8JPDvo?authuser=0&hl=en&rclk=1,Vũ Kiều Tú Seafood Restaurant,Seafood restaurant,21.032317,105.853777,"47a P. Hàng Bè, Hàng Bạc, Hoàn Kiếm, Hà Nội 100000"
https://www.google.com/maps/place/V-Cuisine/data=!4m7!3m6!1s0x3135abc3b738ffdf:0x30f0e3d89261434f!8m2!3d21.0349632!4d105.85128!16s%2Fg%2F11t2s82wvy!19sChIJ3_84t8OrNTERT0Nhktjj8DA?authuser=0&hl=en&rclk=1,V-Cuisine,Vietnamese restaurant,21.034963,105.85128,"29 P. Hàng Giầy, Hàng Buồm, Hoàn Kiếm, Hà Nội"
https://www.google.com/maps/place/Oriana+Vietnamese+Restaurant+and+Vegetarian%2FVegan+Foods/data=!4m7!3m6!1s0x3135ab9d181fb5ed:0xef746543f7361f6f!8m2!3d21.0317765!4d105.8547935!16s%2Fg%2F11t9qhpvdf!19sChIJ7bUfGJ2rNTERbx8290NldO8?authuser=0&hl=en&rclk=1,Oriana Vietnamese Restaurant and Vegetarian/Vegan Foods,Restaurant,21.031776,105.854793,"38 P. Lò Sũ, Lý Thái Tổ, Hoàn Kiếm, Hà Nội 100000"
https://www.google.com/maps/place/Rk+Spice+Indian+Restaurant/data=!4m7!3m6!1s0x3135abbe157191f3:0xe36b5cf5875ec750!8m2!3d21.0316629!4d105.8488288!16s%2Fg%2F11c1nbqtn4!19sChIJ85FxFb6rNTERUMdeh_Vca-M?authuser=0&hl=en&rclk=1,Rk Spice Indian Restaurant,Indian restaurant,21.031663,105.848829,"42 P. Hàng Hòm, Hàng Gai, Hoàn Kiếm, Hà Nội 100000"
https://www.google.com/maps/place/THE+EAT+LIST+OCEAN+PARK+INDIAN+RESTAURANT/data=!4m7!3m6!1s0x3135ab34f73da56d:0xca8ae9b8e40e6f3c!8m2!3d21.032569!4d105.8491927!16s%2Fg%2F11vxxg_rx6!19sChIJbaU99zSrNTERPG8O5Ljpiso?authuser=0&hl=en&rclk=1,THE EAT LIST OCEAN PARK INDIAN RESTAURANT,Indian restaurant,21.032569,105.849193,"41 hang quat,hang gai, hoan kiem, ha noi, Hanoi City, Hà Nội 100000"
https://www.google.com/maps/place/Love+Hanoi+Restaurant/data=!4m7!3m6!1s0x3135abc08c83cbe9:0xaaa5163c7c926051!8m2!3d21.0351842!4d105.8529157!16s%2Fg%2F11g6rclxcn!19sChIJ6cuDjMCrNTERUWCSfDwWpao?authuser=0&hl=en&rclk=1,Love Hanoi Restaurant,Vietnamese restaurant,21.035184,105.852916,"56 P. Đào Duy Từ, Hàng Buồm, Hoàn Kiếm, Hà Nội"
https://www.google.com/maps/place/MIAs+restaurant/data=!4m7!3m6!1s0x3135ab4b97d7412b:0x2a2404f3acda039!8m2!3d21.0300805!4d105.8503924!16s%2Fg%2F11vcmclk4q!19sChIJK0HXl0urNTEROaDNOk9AogI?authuser=0&hl=en&rclk=1,MIAs restaurant,Vietnamese restaurant,21.030081,105.850392,"22 P. Báo Khánh, Hàng Trống, Hoàn Kiếm, Hà Nội 100000"
https://www.google.com/maps/place/Pine+%26+Dine+Skybar+and+Restaurant/data=!4m7!3m6!1s0x3135ab650216ce55:0x2e5ebb9d18b7f729!8m2!3d21.0312603!4d105.8554628!16s%2Fg%2F11h4vvbhjg!19sChIJVc4WAmWrNTERKfe3GJ27Xi4?authuser=0&hl=en&rclk=1,Pine & Dine Skybar and Restaurant,Bar,21.03126,105.855463,"27 P. Lò Sũ, Lý Thái Tổ, Hoàn Kiếm, Hà Nội 100000"
https://www.google.com/maps/place/Highway4+Bar+Restaurant/data=!4m7!3m6!1s0x3135ab8d196ed9e7:0xb37aac4922076c78!8m2!3d21.0335764!4d105.8550723!16s%2Fg%2F1tdyhpc6!19sChIJ59luGY2rNTEReGwHIkmserM?authuser=0&hl=en&rclk=1,Highway4 Bar Restaurant,Vietnamese restaurant,21.033576,105.855072,"5 P. Hàng Tre, Lý Thái Tổ, Hoàn Kiếm, Hà Nội"
https://www.google.com/maps/place/Best4U+Premium+Restaurant/data=!4m7!3m6!1s0x3135abff45b34ec3:0x82ae2217d16fb60a!8m2!3d21.0345891!4d105.8529512!16s%2Fg%2F11w8l9td3k!19sChIJw06zRf-rNTERCrZv0RciroI?authuser=0&hl=en&rclk=1,Best4U Premium Restaurant,Restaurant,21.034589,105.852951,"21 P. Lương Ngọc Quyến, Hàng Buồm, Hoàn Kiếm, Hà Nội"
https://www.google.com/maps/place/THE+TAJ+Indian+Restaurant/data=!4m7!3m6!1s0x3135abbddefc2cff:0xd525ab3ccb771d1b!8m2!3d21.0356767!4d105.8512234!16s%2Fg%2F11lcbyk7tp!19sChIJ_yz83r2rNTERGx13yzyrJdU?authuser=0&hl=en&rclk=1,THE TAJ Indian Restaurant,Indian restaurant,21.035677,105.851223,"71 P. Hàng Buồm, Hàng Buồm, Hoàn Kiếm, Hà Nội 100000"
https://www.google.com/maps/place/B%E1%BA%BFp+Chay+Hu%E1%BB%87+Nhi%C3%AAn+-+Vegan+%26+Vegetarian+Restaurant/data=!4m7!3m6!1s0x3135ab05322710b1:0xed542656b4a5b827!8m2!3d21.0326121!4d105.8493614!16s%2Fg%2F11txy07vbr!19sChIJsRAnMgWrNTERJ7iltFYmVO0?authuser=0&hl=en&rclk=1,Bếp Chay Huệ Nhiên - Vegan & Vegetarian Restaurant,Vegetarian restaurant,21.032612,105.849361,"39 P. Hàng Quạt, Hàng Gai, Hoàn Kiếm, Hà Nội 10000"
https://www.google.com/maps/place/Era+Restaurant/data=!4m7!3m6!1s0x3135ab00aa38f34b:0x2ea842c2c405cd19!8m2!3d21.0353258!4d105.8533199!16s%2Fg%2F11f7qz1gv_!19sChIJS_M4qgCrNTERGc0FxMJCqC4?authuser=0&hl=en&rclk=1,Era Restaurant,Vietnamese restaurant,21.035326,105.85332,"48 P. Mã Mây, Hàng Buồm, Hoàn Kiếm, Hà Nội 100000"
https://www.google.com/maps/place/Tandoor+Restaurant/data=!4m7!3m6!1s0x3135abc0686d17af:0xb1bacb33feef1d94!8m2!3d21.0332848!4d105.8536748!16s%2Fg%2F1tf3wvm0!19sChIJrxdtaMCrNTERlB3v_jPLurE?authuser=0&hl=en&rclk=1,Tandoor Restaurant,Indian restaurant,21.033285,105.853675,"24 P. Hàng Bè, Hàng Bạc, Hoàn Kiếm, Hà Nội"
https://www.google.com/maps/place/Timeline+Coffee+%26+Restaurant/data=!4m7!3m6!1s0x3135ab7a4c07c70d:0xfabf239471535cb5!8m2!3d21.0329604!4d105.8519879!16s%2Fg%2F11vjb1kdm7!19sChIJDccHTHqrNTERtVxTcZQjv_o?authuser=0&hl=en&rclk=1,Timeline Coffee & Restaurant,Restaurant,21.03296,105.851988,"7 P. Đinh Liệt, Hàng Bạc, Hoàn Kiếm, Hà Nội 10000"
https://www.google.com/maps/place/Thang+Long+Signature+Restaurant+%26+Rooftop+Bar/data=!4m7!3m6!1s0x3135ab0241211991:0x52ecfd8709131b64!8m2!3d21.0297756!4d105.8500112!16s%2Fg%2F11tx9f8zvr!19sChIJkRkhQQKrNTERZBsTCYf97FI?authuser=0&hl=en&rclk=1,Thang Long Signature Restaurant & Rooftop Bar,Restaurant,21.029776,105.850011,"92 - 94 P. Hàng Trống, Hàng Trống, Hoàn Kiếm, Hà Nội 100000"
https://www.google.com/maps/place/Madam+Tran+Restaurant/data=!4m7!3m6!1s0x3135abbd7c1a0e97:0x55a0c31ae8c00c8e!8m2!3d21.0359051!4d105.8526723!16s%2Fg%2F11fmmmh0gt!19sChIJlw4afL2rNTERjgzA6BrDoFU?authuser=0&hl=en&rclk=1,Madam Tran Restaurant,Restaurant,21.035905,105.852672,"42B P. Đào Duy Từ, Hàng Buồm, Hoàn Kiếm, Hà Nội 100000"
https://www.google.com/maps/place/VIET+Restaurant+Hanoi/data=!4m7!3m6!1s0x3135abb5d8187c71:0xdf0fa0bcfb402ec!8m2!3d21.031112!4d105.8466337!16s%2Fg%2F11f7r6zxg5!19sChIJcXwY2LWrNTER7AK0zwv68A0?authuser=0&hl=en&rclk=1,VIET Restaurant Hanoi,Restaurant,21.031112,105.846634,"JM Marvel Hotel, 16 P. Hàng Da, Hàng Bông, Hoàn Kiếm, Hà Nội 100000"
https://www.google.com/maps/place/Countryside+Restaurant/data=!4m7!3m6!1s0x3135ab007fca17c7:0xd79b991b9cf374ee!8m2!3d21.0336365!4d105.8472338!16s%2Fg%2F11b6dx9cl9!19sChIJxxfKfwCrNTER7nTznBuZm9c?authuser=0&hl=en&rclk=1,Countryside Restaurant,Restaurant,21.033637,105.847234,"27 P. Bát Đàn, Phố cổ Hà Nội, Hoàn Kiếm, Hà Nội"
https://www.google.com/maps/place/Rajbhog+Hanoi+Indian+Restaurant/data=!4m7!3m6!1s0x3135abdd6c059371:0x2a1e1c278ccb15fe!8m2!3d21.0352775!4d105.8490132!16s%2Fg%2F11vcl_6g8_!19sChIJcZMFbN2rNTER_hXLjCccHio?authuser=0&hl=en&rclk=1,Rajbhog Hanoi Indian Restaurant,Indian restaurant,21.035277,105.849013,"47 P. Lãn Ông, st, Hoàn Kiếm, Hà Nội 100000"
https://www.google.com/maps/place/Kadhai+Indian+Restaurant+Hanoi/data=!4m7!3m6!1s0x3135ab000aba22eb:0x3a1c85195b49c66!8m2!3d21.036559!4d105.8525938!16s%2Fg%2F11vyx4764h!19sChIJ6yK6CgCrNTERZpy0lVHIoQM?authuser=0&hl=en&rclk=1,Kadhai Indian Restaurant Hanoi,Indian restaurant,21.036559,105.852594,"28 P. Đào Duy Từ, Hàng Buồm, Hoàn Kiếm, Hà Nội"
https://www.google.com/maps/place/Pizza+4P%E2%80%99s+Bao+Khanh/data=!4m7!3m6!1s0x3135ab95850c0c9b:0x8f6aaef1b985c9b5!8m2!3d21.031054!4d105.8501487!16s%2Fg%2F11bw46_k6g!19sChIJmwwMhZWrNTERtcmFufGuao8?authuser=0&hl=en&rclk=1,Pizza 4P’s Bao Khanh,Pizza restaurant,21.031054,105.850149,"11B P. Báo Khánh, Alley, Hoàn Kiếm, Hà Nội 100000"
https://www.google.com/maps/place/MASHAALLAH+INDIAN+RESTAURANT/data=!4m7!3m6!1s0x3135ab617faa110b:0xb3716b9a64b6cbbd!8m2!3d21.0349275!4d105.8515767!16s%2Fg%2F11y67t26mg!19sChIJCxGqf2GrNTERvcu2ZJprcbM?authuser=0&hl=en&rclk=1,MASHAALLAH INDIAN RESTAURANT,Indian restaurant,21.034927,105.851577,"44 P. Lương Ngọc Quyến, Hàng Buồm, Hoàn Kiếm, Hà Nội"
https://www.google.com/maps/place/YES+Restaurant/data=!4m7!3m6!1s0x3135ab1f3551fd5b:0xbfcf0c6e24532256!8m2!3d21.0348284!4d105.8515502!16s%2Fg%2F11vbgl_nzn!19sChIJW_1RNR-rNTERViJTJG4Mz78?authuser=0&hl=en&rclk=1,YES Restaurant,Restaurant,21.034828,105.85155,"46 P. Lương Ngọc Quyến, Hàng Buồm, Hoàn Kiếm, Hà Nội 111515"
https://www.google.com/maps/place/Rue+Lamblot+Restaurant+%26+Cafe/data=!4m7!3m6!1s0x3135ab959f1fa99f:0x7b4bae939eec689f!8m2!3d21.0306587!4d105.848691!16s%2Fg%2F11bbrn8d2s!19sChIJn6kfn5WrNTERn2jsnpOuS3s?authuser=0&hl=en&rclk=1,Rue Lamblot Restaurant & Cafe,Vietnamese restaurant,21.030659,105.848691,"6 P. Lý Quốc Sư, Hàng Trống, Hoàn Kiếm, Hà Nội"
https://www.google.com/maps/place/RED+CHILLI+INDIAN+RESTAURANT/data=!4m7!3m6!1s0x3135abee0d1ddc5b:0x39c4d5f28b21212c!8m2!3d21.0339094!4d105.851743!16s%2Fg%2F11l77zzv4w!19sChIJW9wdDe6rNTERLCEhi_LVxDk?authuser=0&hl=en&rclk=1,RED CHILLI INDIAN RESTAURANT,Indian restaurant,21.033909,105.851743,"117 P. Hàng Bạc, Phố cổ Hà Nội, Hoàn Kiếm, Hà Nội"
https://www.google.com/maps/place/Trung+Vuong+Primary+School/data=!4m7!3m6!1s0x3135abea596efe73:0xd8b5b0499a61039!8m2!3d21.0303124!4d105.8551556!16s%2Fg%2F1tdd79r6!19sChIJc_5uWeqrNTERORCmmQRbiw0?authuser=0&hl=en&rclk=1,Trung Vuong Primary School,Elementary school,21.030312,105.855156,"25 P. Lý Thái Tổ, Lý Thái Tổ, Hoàn Kiếm, Hà Nội"
https://www.google.com/maps/place/Nguyen+Du+Secondary+School/data=!4m7!3m6!1s0x3135abbe5069a66d:0xd269e118b5364a06!8m2!3d21.0330715!4d105.8489468!16s%2Fg%2F1tfrtzmj!19sChIJbaZpUL6rNTERBko2tRjhadI?authuser=0&hl=en&rclk=1,Nguyen Du Secondary School,Middle school,21.033071,105.848947,"44-46 P. Hàng Quạt, Hàng Gai, Hoàn Kiếm, Hà Nội"
https://www.google.com/maps/place/Tr%C6%B0%E1%BB%9Dng+Ti%E1%BB%83u+h%E1%BB%8Dc+Nguy%E1%BB%85n+Du/data=!4m7!3m6!1s0x3135abc0f92c7e8f:0xc76327b907cb46c5!8m2!3d21.0334057!4d105.8551692!16s%2Fg%2F11dx9hbfb4!19sChIJj34s-cCrNTERxUbLB7knY8c?authuser=0&hl=en&rclk=1,Trường Tiểu học Nguyễn Du,Primary school,21.033406,105.855169,"11-13 P. Hàng Tre, Lý Thái Tổ, Hoàn Kiếm, Hà Nội"
https://www.google.com/maps/place/Viet+Duc+High+School/data=!4m7!3m6!1s0x3135ab9309e23b8f:0xb2c9d2ad999e9952!8m2!3d21.0234376!4d105.8493845!16s%2Fg%2F122t_0bm!19sChIJjzviCZOrNTERUpmema3SybI?authuser=0&hl=en&rclk=1,Viet Duc High School,High school,21.023438,105.849384,"47 P. Lý Thường Kiệt, Trần Hưng Đạo, Hoàn Kiếm, Hà Nội"
https://www.google.com/maps/place/Chuong+Duong+Secondary+School/data=!4m7!3m6!1s0x3135abc1ffb7ccf7:0xea7c4db568c8543!8m2!3d21.0299526!4d105.8582281!16s%2Fg%2F1tdyyf0w!19sChIJ98y3_8GrNTERQ4WMVtvEpw4?authuser=0&hl=en&rclk=1,Chuong Duong Secondary School,Middle school,21.029953,105.858228,"105 P. Vọng Hà, Chương Dương Độ, Hoàn Kiếm, Hà Nội"
https://www.google.com/maps/place/Tran+Nhat+Duat+Elementary+School/data=!4m7!3m6!1s0x3135abc745919777:0x948b4449a8e108ec!8m2!3d21.037095!4d105.8529621!16s%2Fg%2F1tf7d46y!19sChIJd5eRRcerNTER7AjhqElEi5Q?authuser=0&hl=en&rclk=1,Tran Nhat Duat Elementary School,Primary school,21.037095,105.852962,"2 P. Chợ Gạo, Hàng Buồm, Hoàn Kiếm, Hà Nội"
https://www.google.com/maps/place/ME+School+Qu%E1%BB%91c+T%E1%BB%AD+Gi%C3%A1m/data=!4m7!3m6!1s0x3135ac48b2f7eecb:0x9d29bb3554e0d4f!8m2!3d21.0290859!4d105.8400742!16s%2Fg%2F11bz0n85x4!19sChIJy-73skisNTERTw1OVbOb0gk?authuser=0&hl=en&rclk=1,ME School Quốc Tử Giám,Preschool,21.029086,105.840074,"67 P. Nguyễn Thái Học, Văn Miếu, Ba Đình, Hà Nội"
https://www.google.com/maps/place/Thai+Thinh+Middle+School/data=!4m7!3m6!1s0x3135ab62c73dcb65:0x4344f1ed4cd63e0!8m2!3d21.0124161!4d105.8160275!16s%2Fg%2F1tdg0pjk!19sChIJZcs9x2KrNTER4GPN1B5PNAQ?authuser=0&hl=en&rclk=1,Thai Thinh Middle School,Middle school,21.012416,105.816027,"131A P. Thái Thịnh, Thịnh Quang, Đống Đa, Hà Nội"
https://www.google.com/maps/place/Trang+An+Primary+school/data=!4m7!3m6!1s0x3135ab94efef80bd:0x3714784a80455f65!8m2!3d21.0279864!4d105.8499318!16s%2Fg%2F1td_dqjk!19sChIJvYDv75SrNTERZV9FgEp4FDc?authuser=0&hl=en&rclk=1,Trang An Primary school,School,21.027986,105.849932,"29 P. Nhà Chung, Hàng Trống, Hoàn Kiếm, Hà Nội"
https://www.google.com/maps/place/Van+Chuong+Primary+School/data=!4m7!3m6!1s0x3135ab9ad4f94c3b:0x98d46547a9912d33!8m2!3d21.0204282!4d105.8379714!16s%2Fg%2F1thw4645!19sChIJO0z51JqrNTERMy2RqUdl1Jg?authuser=0&hl=en&rclk=1,Van Chuong Primary School,Primary school,21.020428,105.837971,"323 Ng. Văn Chương, Văn Chương, Đống Đa, Hà Nội"
https://www.google.com/maps/place/Ngo+Si+Lien+Secondary+School/data=!4m7!3m6!1s0x3135ab92ab33c269:0xe3ebb9678ec9d76!8m2!3d21.0191488!4d105.8524905!16s%2Fg%2F1vgwz6m5!19sChIJacIzq5KrNTERdp3seJa7Pg4?authuser=0&hl=en&rclk=1,Ngo Si Lien Secondary School,Middle school,21.019149,105.852491,"27 P.Hàm Long, Hàng Bài, Hoàn Kiếm, Hà Nội"
https://www.google.com/maps/place/GNH+SCHOOL/data=!4m7!3m6!1s0x3135abb634daf0b1:0xd431c9bb3cc9f506!8m2!3d21.0175363!4d105.8480286!16s%2Fg%2F11k42v15f1!19sChIJsfDaNLarNTERBvXJPLvJMdQ?authuser=0&hl=en&rclk=1,GNH SCHOOL,School,21.017536,105.848029,"52b P. Trần Nhân Tông, Nguyễn Du, Hai Bà Trưng, Hà Nội"
https://www.google.com/maps/place/Thanh+Quan+Secondary+School/data=!4m7!3m6!1s0x3135abb944ac07ed:0x70f098b9235286d3!8m2!3d21.0377613!4d105.8472469!16s%2Fg%2F1hm35t5k1!19sChIJ7QesRLmrNTER04ZSI7mY8HA?authuser=0&hl=en&rclk=1,Thanh Quan Secondary School,Middle school,21.037761,105.847247,"29 Hàng Cót, Hàng Mã, Hoàn Kiếm, Hà Nội"
https://www.google.com/maps/place/Wellspring+Bilingual+School/data=!4m7!3m6!1s0x3135abd786acc8dd:0x82326e3bf4cae18a!8m2!3d21.0390478!4d105.8743524!16s%2Fg%2F1hm3p14t8!19sChIJ3cishterNTERiuHK9DtuMoI?authuser=0&hl=en&rclk=1,Wellspring Bilingual School,Private educational institution,21.039048,105.874352,"95 P. Ái Mộ, Bồ Đề, Long Biên, Hà Nội"
https://www.google.com/maps/place/Tan+Phuc+Primary+School/data=!4m7!3m6!1s0x3135abc783a1a7bf:0x9e7c35de50d10a6d!8m2!3d21.0385632!4d105.853306!16s%2Fg%2F1tdc78d9!19sChIJv6ehg8erNTERbQrRUN41fJ4?authuser=0&hl=en&rclk=1,Tan Phuc Primary School,Elementary school,21.038563,105.853306,"Số 12 P. Phúc Tân, Phúc Tân, Hoàn Kiếm, Hà Nội"
https://www.google.com/maps/place/Phan+Chu+Trinh+Primary+School/data=!4m7!3m6!1s0x3135ab984881d2d3:0xcb34a710c6e037f9!8m2!3d21.0297857!4d105.8392495!16s%2Fg%2F1vc7_8p6!19sChIJ09KBSJirNTER-TfgxhCnNMs?authuser=0&hl=en&rclk=1,Phan Chu Trinh Primary School,Elementary school,21.029786,105.839249,"40 P. Nguyễn Thái Học, Điện Biên, Ba Đình, Hà Nội"
https://www.google.com/maps/place/Hanoi+Bible+School/data=!4m7!3m6!1s0x3135abd9c4eae6a7:0xdbc05cf8e5f55b74!8m2!3d21.0312343!4d105.846059!16s%2Fg%2F11h7dndhfp!19sChIJp-bqxNmrNTERdFv15fhcwNs?authuser=0&hl=en&rclk=1,Hanoi Bible School,Religious school,21.031234,105.846059,"Số 2 Ng. Trạm, Cửa Đông, Hoàn Kiếm, Hà Nội 100000"
https://www.google.com/maps/place/Tay+Son+Middle+School/data=!4m7!3m6!1s0x3135ab8dc7a77303:0x4145ebda6a62dcc3!8m2!3d21.0171948!4d105.8479929!16s%2Fg%2F1tf0n2k4!19sChIJA3Onx42rNTERw9xiatrrRUE?authuser=0&hl=en&rclk=1,Tay Son Middle School,Middle school,21.017195,105.847993,"52A P. Trần Nhân Tông, Nguyễn Du, Hai Bà Trưng, Hà Nội"
https://www.google.com/maps/place/Nguyen+Trung+Truc+Elementary+School/data=!4m7!3m6!1s0x3135abb9eaf27d17:0x1c19fe19a9b170f7!8m2!3d21.0430798!4d105.8463646!16s%2Fg%2F11b6d5j601!19sChIJF33y6rmrNTER93CxqRn-GRw?authuser=0&hl=en&rclk=1,Nguyen Trung Truc Elementary School,Elementary school,21.04308,105.846365,"9A P. Phạm Hồng Thái, Nguyễn Trung Trực, Ba Đình, Hà Nội"
https://www.google.com/maps/place/Nguyen+Khuyen+Elementary+School/data=!4m7!3m6!1s0x3135ab8d690d5e29:0x7ab4094b6c428c2d!8m2!3d21.0180241!4d105.850819!16s%2Fg%2F11b6dr5sy2!19sChIJKV4NaY2rNTERLYxCbEsJtHo?authuser=0&hl=en&rclk=1,Nguyen Khuyen Elementary School,Elementary school,21.018024,105.850819,"2V92+684 Nguyen Khuyen Elementary School, Ng. Tràng An, Bùi Thị Xuân, Hai Bà Trưng, Hà Nội"
https://www.google.com/maps/place/Tran+Nhan+Tong+High+School/data=!4m7!3m6!1s0x3135abf38a4dbe5f:0xaee20bcfabfaa51b!8m2!3d21.0129572!4d105.8567433!16s%2Fg%2F11g9qdlrx2!19sChIJX75NivOrNTERG6X6q88L4q4?authuser=0&hl=en&rclk=1,Tran Nhan Tong High School,High school,21.012957,105.856743,"15 P. Hương Viên, Đồng Nhân, Hai Bà Trưng, Hà Nội"
https://www.google.com/maps/place/Ivy+school+kindergarten/data=!4m7!3m6!1s0x3135abb689f281db:0xcaf76bd779e5e9e8!8m2!3d21.0274686!4d105.8289466!16s%2Fg%2F11gy3m_cwy!19sChIJ24HyibarNTER6Onleddr98o?authuser=0&hl=en&rclk=1,Ivy school kindergarten,School,21.027469,105.828947,"125 P. An Trạch, Chợ Dừa, Đống Đa, Hà Nội 11500"
https://www.google.com/maps/place/Chu+Van+An+High+School/data=!4m7!3m6!1s0x3135aba622cb60ad:0xd7b592fcd06922bd!8m2!3d21.0431451!4d105.8325521!16s%2Fm%2F09gjljc!19sChIJrWDLIqarNTERvSJp0PyStdc?authuser=0&hl=en&rclk=1,Chu Van An High School,Senior high school,21.043145,105.832552,"10 Đ. Thụy Khuê, Thuỵ Khuê, Tây Hồ, Hà Nội"
https://www.google.com/maps/place/Primary+School+Vietnam+-+Cuba/data=!4m7!3m6!1s0x3135abb074aa4a95:0xf4d5ec4e58c79040!8m2!3d21.0432026!4d105.8422885!16s%2Fg%2F1hm681dw3!19sChIJlUqqdLCrNTERQJDHWE7s1fQ?authuser=0&hl=en&rclk=1,Primary School Vietnam - Cuba,Elementary school,21.043203,105.842288,"115 P. Nguyễn Trường Tộ, Quán Thánh, Ba Đình, Hà Nội"
https://www.google.com/maps/place/Kim+Lien+High+School/data=!4m7!3m6!1s0x3135ab805e9cf84f:0x33c0794f61b4dff3!8m2!3d21.0109327!4d105.8316686!16s%2Fg%2F1hc2sl0pw!19sChIJT_icXoCrNTER89-0YU95wDM?authuser=0&hl=en&rclk=1,Kim Lien High School,Senior high school,21.010933,105.831669,"1 Ng. 4C P. Đặng Văn Ngữ, Trung Tự, Đống Đa, Hà Nội"
https://www.google.com/maps/place/Nghia+Dung+Elementary+School/data=!4m7!3m6!1s0x3135abb6ac75ca2f:0xde2d7988fd27e0bc!8m2!3d21.0482631!4d105.8469872!16s%2Fg%2F119wnt3l0!19sChIJL8p1rLarNTERvOAn_Yh5Ld4?authuser=0&hl=en&rclk=1,Nghia Dung Elementary School,Primary school,21.048263,105.846987,"55 P. Nghĩa Dũng, Phúc xá, Ba Đình, Hà Nội 100000"
https://www.google.com/maps/place/Ba+Trieu+Kindergarten+School/data=!4m7!3m6!1s0x3135ab8d7fd173c5:0x11a46fc49cb13dc8!8m2!3d21.0191011!4d105.8496462!16s%2Fg%2F1pzsrqk6n!19sChIJxXPRf42rNTERyD2xnMRvpBE?authuser=0&hl=en&rclk=1,Ba Trieu Kindergarten School,Preschool,21.019101,105.849646,"65 P. Bà Triệu, Trần Hưng Đạo, Hai Bà Trưng, Hà Nội"
https://www.google.com/maps/place/Erato+School+of+Music+and+Performing+Arts/data=!4m7!3m6!1s0x3135ab9c2a50baeb:0x9e867406fccecbcc!8m2!3d21.0265274!4d105.8322987!16s%2Fg%2F11gbl2xtn6!19sChIJ67pQKpyrNTERzMvO_AZ0hp4?authuser=0&hl=en&rclk=1,Erato School of Music and Performing Arts,School,21.026527,105.832299,"30 P. Đoàn Thị Điểm, Quốc Tử Giám, Đống Đa, Hà Nội 100000"
https://www.google.com/maps/place/Vinschool+Primary+School+Timescity+T35/data=!4m7!3m6!1s0x3135ad83abd36103:0xc0d71e81f7b7dc0f!8m2!3d20.9949413!4d105.8665479!16s%2Fg%2F11mv502hkb!19sChIJA2HTq4OtNTERD9y394Ee18A?authuser=0&hl=en&rclk=1,Vinschool Primary School Timescity T35,School,20.994941,105.866548,"XVV8+XJF Vinschool Primary School Timescity T35, Khu đô thị Times City, Hoàng Mai, Hà Nội"
https://www.google.com/maps/place/Dinh+Tien+Hoang+High+School/data=!4m7!3m6!1s0x3135abb1bc390b1b:0xcebfe1c76225043c!8m2!3d21.0463116!4d105.8429901!16s%2Fg%2F1v26jlgp!19sChIJGws5vLGrNTERPAQlYsfhv84?authuser=0&hl=en&rclk=1,Dinh Tien Hoang High School,Senior high school,21.046312,105.84299,"67 Phó Đức Chính, Trúc Bạch, Ba Đình, Hà Nội"
https://www.google.com/maps/place/Horizon+International+Bilingual+School+Hanoi+Campus/data=!4m7!3m6!1s0x3135aafa411e393f:0x3d4a9c60f42429a7!8m2!3d21.066478!4d105.8217907!16s%2Fg%2F12mj_lc02!19sChIJPzkeQfqqNTERpykk9GCcSj0?authuser=0&hl=en&rclk=1,Horizon International Bilingual School Hanoi Campus,International school,21.066478,105.821791,"12 P. Quảng Bá, Quảng An, Tây Hồ, Hà Nội"
https://www.google.com/maps/place/MindX+Technology+School+%28Nguy%E1%BB%85n+V%C4%83n+C%E1%BB%AB%29/data=!4m7!3m6!1s0x3135ab2e73fcf9dd:0x5e01952830b540a9!8m2!3d21.0407397!4d105.8686516!16s%2Fg%2F11sv__tl5f!19sChIJ3fn8cy6rNTERqUC1MCiVAV4?authuser=0&hl=en&rclk=1,MindX Technology School (Nguyễn Văn Cừ),School,21.04074,105.868652,"98 Đ. Nguyễn Văn Cừ, Bồ Đề, Long Biên, Hà Nội"
https://www.google.com/maps/place/Tay+Son+Elementary+School/data=!4m7!3m6!1s0x3135ab8bef513655:0x669bdeafc2b80689!8m2!3d21.0128814!4d105.8468401!16s%2Fg%2F1tdlrrcj!19sChIJVTZR74urNTERiQa4wq_em2Y?authuser=0&hl=en&rclk=1,Tay Son Elementary School,Elementary school,21.012881,105.84684,"60 P. Lê Đại Hành, Lê Đại Hành, Hai Bà Trưng, Hà Nội"
https://www.google.com/maps/place/Cat+Linh+Primary+School/data=!4m7!3m6!1s0x3135ab9e2118e255:0x8fc07bbb693757f3!8m2!3d21.0283936!4d105.8292734!16s%2Fg%2F1thw4646!19sChIJVeIYIZ6rNTER81c3abt7wI8?authuser=0&hl=en&rclk=1,Cat Linh Primary School,Elementary school,21.028394,105.829273,"31A P. Cát Linh, Cát Linh, Đống Đa, Hà Nội"
https://www.google.com/maps/place/Vinschool+Elementary+School+-+The+Harmony/data=!4m7!3m6!1s0x3135a982eb73bb33:0xbf436399a4771dce!8m2!3d21.0440216!4d105.9043827!16s%2Fg%2F11gm877scs!19sChIJM7tz64KpNTERzh13pJljQ78?authuser=0&hl=en&rclk=1,Vinschool Elementary School - The Harmony,Primary school,21.044022,105.904383,"Phúc Đồng, Long Biên, Hà Nội"
https://www.google.com/maps/place/To+Hoang+Secondary+School/data=!4m7!3m6!1s0x3135ac77e6de6ae9:0xa5f3a63090da539d!8m2!3d21.008129!4d105.849498!16s%2Fg%2F1tczsdlw!19sChIJ6Wre5nesNTERnVPakDCm86U?authuser=0&hl=en&rclk=1,To Hoang Secondary School,Middle school,21.008129,105.849498,"27 Đ. Đại Cồ Việt, Cầu Dền, Hai Bà Trưng, Hà Nội"
https://www.google.com/maps/place/Van+Ho+Middle+School/data=!4m7!3m6!1s0x3135ab8afa56fe9d:0xa4448caf1b3e95b4!8m2!3d21.0092991!4d105.8495764!16s%2Fg%2F1tk60l0f!19sChIJnf5W-oqrNTERtJU-G6-MRKQ?authuser=0&hl=en&rclk=1,Van Ho Middle School,Middle school,21.009299,105.849576,"193 P. Bà Triệu, Lê Đại Hành, Hai Bà Trưng, Hà Nội"
https://www.google.com/maps/place/MindX+Technology+School/data=!4m7!3m6!1s0x3135ab1042b0d67d:0x22cb0182459f5755!8m2!3d21.011644!4d105.8627332!16s%2Fg%2F11t7fd9y6m!19sChIJfdawQhCrNTERVVefRYIByyI?authuser=0&hl=en&rclk=1,MindX Technology School,Educational institution,21.011644,105.862733,"3 P. Lương Yên, Bạch Đằng, Hai Bà Trưng, Hà Nội"
https://www.google.com/maps/place/Tr%C6%B0%E1%BB%9Dng+Ph%E1%BB%95+th%C3%B4ng+Li%C3%AAn+c%E1%BA%A5p+H.A.S+%28Hanoi+Adelaide+School%29+C%C6%A1+s%E1%BB%9F+%C4%90%E1%BB%91ng+%C4%90a/data=!4m7!3m6!1s0x3135ac7f35cd2c1d:0x68a8a1c8b9f4f58c!8m2!3d21.0072662!4d105.834657!16s%2Fg%2F11dymll2kk!19sChIJHSzNNX-sNTERjPX0ucihqGg?authuser=0&hl=en&rclk=1,Trường Phổ thông Liên cấp H.A.S (Hanoi Adelaide School) Cơ sở Đống Đa,School,21.007266,105.834657,"B17 P. Lương Định Của, Kim Liên, Đống Đa, Hà Nội"
https://www.google.com/maps/place/Vietnam+tango+school/data=!4m7!3m6!1s0x3135ab7ecd41e481:0xb24ccf0612cb7082!8m2!3d21.0237627!4d105.8513714!16s%2Fg%2F11q3mfr6t1!19sChIJgeRBzX6rNTERgnDLEgbPTLI?authuser=0&hl=en&rclk=1,Vietnam tango school,Education center,21.023763,105.851371,"27 P. Bà Triệu, Hàng Bài, Hoàn Kiếm, Hà Nội"
https://www.google.com/maps/place/Ba+Trieu+Primary+School/data=!4m7!3m6!1s0x3135ab8b03307a6d:0x87f1a44ca05f9ff8!8m2!3d21.0106777!4d105.8504565!16s%2Fg%2F1th60vxj!19sChIJbXowA4urNTER-J9foEyk8Yc?authuser=0&hl=en&rclk=1,Ba Trieu Primary School,Primary school,21.010678,105.850456,"6 P. Thái Phiên, Lê Đại Hành, Hai Bà Trưng, Hà Nội"
https://www.google.com/maps/place/Tran+Phu+High+School/data=!4m7!3m6!1s0x3135abec7a572ce9:0xa9577ff42530f50c!8m2!3d21.0238434!4d105.8560678!16s%2Fg%2F1tdd2r72!19sChIJ6SxXeuyrNTERDPUwJfR_V6k?authuser=0&hl=en&rclk=1,Tran Phu High School,High school,21.023843,105.856068,"8 P. Hai Bà Trưng, Tràng Tiền, Hoàn Kiếm, Hà Nội"
https://www.google.com/maps/place/Tran+Quoc+Toan+Primary+School/data=!4m7!3m6!1s0x3135ab94f02ccb8b:0xc81d73a81aa2f0e0!8m2!3d21.0268441!4d105.850523!16s%2Fg%2F1jkvf0pl4!19sChIJi8ss8JSrNTER4PCiGqhzHcg?authuser=0&hl=en&rclk=1,Tran Quoc Toan Primary School,School,21.026844,105.850523,"33 P. Nhà Chung, Hàng Trống, Hoàn Kiếm, Hà Nội"
https://www.google.com/maps/place/Le+Loi+Secondary+School/data=!4m7!3m6!1s0x3135abb8eabe6555:0x113314dcc08a3135!8m2!3d21.0378735!4d105.8509269!16s%2Fg%2F1tf9_gh4!19sChIJVWW-6rirNTERNTGKwNwUMxE?authuser=0&hl=en&rclk=1,Le Loi Secondary School,Middle school,21.037873,105.850927,"33 P. Nguyễn Thiếp, Đồng Xuân, Hoàn Kiếm, Hà Nội"
https://www.google.com/maps/place/Trung+Vuong+Secondary+School/data=!4m7!3m6!1s0x3135ab9349787fb3:0x13f3a5939ae7473c!8m2!3d21.0233484!4d105.8521863!16s%2Fg%2F1v82zkms!19sChIJs394SZOrNTERPEfnmpOl8xM?authuser=0&hl=en&rclk=1,Trung Vuong Secondary School,Middle school,21.023348,105.852186,"26 P. Hàng Bài, Hàng Bài, Hoàn Kiếm, Hà Nội"
https://www.google.com/maps/place/Thang+Long+Primary+School/data=!4m7!3m6!1s0x3135ab96189ec4f7:0x526fa211e6296b73!8m2!3d21.0307417!4d105.8451222!16s%2Fg%2F1q5gp_1l_!19sChIJ98SeGJarNTERc2sp5hGib1I?authuser=0&hl=en&rclk=1,Thang Long Primary School,Primary school,21.030742,105.845122,"20, Phố Ngõ Trạm, Phường Hàng Bông, Quận Hoàn Kiếm, Cửa Đông, Hoàn Kiếm, Hà Nội"
https://www.google.com/maps/place/TH+School/data=!4m7!3m6!1s0x3135ac7fc964d427:0x51731b029aca0380!8m2!3d21.0073945!4d105.8304454!16s%2Fg%2F11cr_5ts7_!19sChIJJ9RkyX-sNTERgAPKmgIbc1E?authuser=0&hl=en&rclk=1,TH School,Private educational institution,21.007395,105.830445,"4-6, P. Chùa Bộc, Trung Liệt, Đống Đa, Hà Nội 100000"
https://www.google.com/maps/place/Singapore+International+School+Van+Phuc/data=!4m7!3m6!1s0x3135ab6d31831037:0xaabbfd7e0f0fc2ec!8m2!3d21.0315151!4d105.8166809!16s%2Fg%2F11bv388wrg!19sChIJNxCDMW2rNTER7MIPD379u6o?authuser=0&hl=en&rclk=1,Singapore International School Van Phuc,International school,21.031515,105.816681,"46 P. Vạn Bảo, Khu Ngoại giao đoàn Vạn Phúc, Ba Đình, Hà Nội 10000"
https://www.google.com/maps/place/Wellspring+Bilingual+School/data=!4m7!3m6!1s0x3135abd786acc8dd:0x82326e3bf4cae18a!8m2!3d21.0390478!4d105.8743524!16s%2Fg%2F1hm3p14t8!19sChIJ3cishterNTERiuHK9DtuMoI?authuser=0&hl=en&rclk=1,Wellspring Bilingual School,Private educational institution,21.039048,105.874352,"95 P. Ái Mộ, Bồ Đề, Long Biên, Hà Nội"
https://www.google.com/maps/place/Quynh+Mai+Primary+School/data=!4m7!3m6!1s0x3135ac095b8e2e5f:0xb0806e11da1b8301!8m2!3d21.0020523!4d105.8588713!16s%2Fg%2F11cn6j7p0n!19sChIJXy6OWwmsNTERAYMb2hFugLA?authuser=0&hl=en&rclk=1,Quynh Mai Primary School,Elementary school,21.002052,105.858871,"2V25+RGH Quynh Mai Primary School, P. 8-3, Quỳnh Mai, Hai Bà Trưng, Hà Nội"
https://www.google.com/maps/place/Dien+Bien+Primary+School/data=!4m7!3m6!1s0x3135ab967db10c51:0x2e57e5db79a573dc!8m2!3d21.0283218!4d105.8461223!16s%2Fg%2F11c6rwlc2v!19sChIJUQyxfZarNTER3HOledvlVy4?authuser=0&hl=en&rclk=1,Dien Bien Primary School,School,21.028322,105.846122,"SHàng Bông, 44 P. Quán Sứ, Hàng Bông, Hoàn Kiếm, Hà Nội"
https://www.google.com/maps/place/Huy+Van+Secondary+School/data=!4m7!3m6!1s0x3135ab9b7d59bf69:0xb5f495d7bbee41ea!8m2!3d21.022446!4d105.8349702!16s%2Fg%2F11rvtn5jn!19sChIJab9ZfZurNTER6kHuu9eV9LU?authuser=0&hl=en&rclk=1,Huy Van Secondary School,Middle school,21.022446,105.83497,"191, Văn Chương, Đống Đa, Hà Nội"
https://www.google.com/maps/place/To+Hoang+Elementary+School/data=!4m7!3m6!1s0x3135ab8a7b5869dd:0x27305e9edc959c2!8m2!3d21.0082208!4d105.8492133!16s%2Fg%2F11btltkfsy!19sChIJ3WlYe4qrNTERwlnJ7ekFcwI?authuser=0&hl=en&rclk=1,To Hoang Elementary School,Elementary school,21.008221,105.849213,"29 Đ. Đại Cồ Việt, Cầu Dền, Hai Bà Trưng, Hà Nội"
https://www.google.com/maps/place/Minh+Khai+Secondary+School/data=!4m7!3m6!1s0x3135abf62533974b:0xc5d267800a744dbb!8m2!3d21.0065965!4d105.8601219!16s%2Fg%2F11b6d85dgw!19sChIJS5czJfarNTERu010CoBn0sU?authuser=0&hl=en&rclk=1,Minh Khai Secondary School,Middle school,21.006597,105.860122,"Ngõ 84 P. Kim Ngưu, Thanh Nhàn, Hai Bà Trưng, Hà Nội"
https://www.google.com/maps/place/Nguyen+Ba+Ngoc+Primary+School/data=!4m7!3m6!1s0x3135abe4e611f92b:0xd68df58f3858e1eb!8m2!3d21.0341221!4d105.8137274!16s%2Fg%2F11n1198z6z!19sChIJK_kR5uSrNTER6-FYOI_1jdY?authuser=0&hl=en&rclk=1,Nguyen Ba Ngoc Primary School,Primary school,21.034122,105.813727,"46 P. Liễu Giai, Cống Vị, Ba Đình, Hà Nội"
https://www.google.com/maps/place/Penta+Melody+School/data=!4m7!3m6!1s0x3135ab79fbc195e1:0x8980ea10c2ab02ac!8m2!3d21.0209076!4d105.8238098!16s%2Fg%2F11hfb4vzpg!19sChIJ4ZXB-3mrNTERrAKrwhDqgIk?authuser=0&hl=en&rclk=1,Penta Melody School,School,21.020908,105.82381,"67 Ngõ 16 Hoàng Cầu, Chợ Dừa, Đống Đa, Hà Nội"
https://www.google.com/maps/place/Phuong+Lien+Elementary+School/data=!4m7!3m6!1s0x3135ab870d8a3d8f:0xc24c5196dbb5c3ac!8m2!3d21.0103686!4d105.8370246!16s%2Fg%2F12hm_lwmz!19sChIJjz2KDYerNTERrMO125ZRTMI?authuser=0&hl=en&rclk=1,Phuong Lien Elementary School,Elementary school,21.010369,105.837025,"11 P. Xã Đàn, Phương Liên, Đống Đa, Hà Nội 100000"
https://www.google.com/maps/place/M%E1%BA%A6M+NON+H%E1%BA%A0NH+PH%C3%9AC+-LHS+-+Little+happy+School/data=!4m7!3m6!1s0x3135ab5a59fb4e01:0x5a2947871adbe93!8m2!3d21.0211499!4d105.8149219!16s%2Fg%2F11gjtc0hy8!19sChIJAU77WVqrNTERk76tcXiUogU?authuser=0&hl=en&rclk=1,MẦM NON HẠNH PHÚC -LHS - Little happy School,School,21.02115,105.814922,"105 B1D, Thành Công, Ba Đình, Hà Nội"
https://www.google.com/maps/place/Dong+Da+Middle+School/data=!4m7!3m6!1s0x3135ac7ed22907e7:0x57a67d4029f40463!8m2!3d21.0055212!4d105.834539!16s%2Fg%2F1th7_dwz!19sChIJ5wcp0n6sNTERYwT0KUB9plc?authuser=0&hl=en&rclk=1,Dong Da Middle School,Middle school,21.005521,105.834539,"28 P. Lương Định Của, Phương Đình, Đống Đa, Hà Nội 100000"
https://www.google.com/maps/place/Tr%C6%B0%E1%BB%9Dng+THCS+Nguy%E1%BB%85n+Tri+Ph%C6%B0%C6%A1ng/data=!4m7!3m6!1s0x3135abba9738f639:0x92a225a347a51402!8m2!3d21.0420239!4d105.8427673!16s%2Fg%2F11b6nrh6gv!19sChIJOfY4l7qrNTERAhSlR6MlopI?authuser=0&hl=en&rclk=1,Trường THCS Nguyễn Tri Phương,Middle school,21.042024,105.842767,"67 Cửa Bắc, Quán Thánh, Ba Đình, Hà Nội"
https://www.google.com/maps/place/Bach+Mai+Primary+School/data=!4m7!3m6!1s0x3135ac72db7cebb1:0x7b9bc90a09bcc182!8m2!3d20.9981212!4d105.8514161!16s%2Fg%2F1td7ksgg!19sChIJset823KsNTERgsG8CQrJm3s?authuser=0&hl=en&rclk=1,Bach Mai Primary School,Primary school,20.998121,105.851416,"XVX2+6HV Bach Mai Primary School, P. Hồng Mai, Bạch Mai, Hai Bà Trưng, Hà Nội"
https://www.google.com/maps/place/Trung+Tu+Elementary+School/data=!4m7!3m6!1s0x3135ab809b2c5dc3:0xdb605498fb9a3306!8m2!3d21.0097343!4d105.8326648!16s%2Fg%2F1tkl0t2r!19sChIJw10sm4CrNTERBjOa-5hUYNs?authuser=0&hl=en&rclk=1,Trung Tu Elementary School,Elementary school,21.009734,105.832665,"3 Ng. 4A P. Đặng Văn Ngữ, Trung Tự, Đống Đa, Hà Nội"
https://www.google.com/maps/place/High+School+in+Hanoi/data=!4m7!3m6!1s0x3135ac9076bbe1af:0xb92576d195c1c7f7!8m2!3d21.0255303!4d105.8325639!16s%2Fg%2F11byyxd_qb!19sChIJr-G7dpCsNTER98fBldF2Jbk?authuser=0&hl=en&rclk=1,High School in Hanoi,Senior high school,21.02553,105.832564,"3 P. Phan Văn Trị, Hàng Bột, Đống Đa, Hà Nội"
https://www.google.com/maps/place/summer+school/data=!4m7!3m6!1s0x3135ab70a5d7a4bd:0xe07aef1b1ed3f3d7!8m2!3d21.022096!4d105.82228!16s%2Fg%2F11f00my3ht!19sChIJvaTXpXCrNTER1_PTHhvveuA?authuser=0&hl=en&rclk=1,summer school,School,21.022096,105.82228,"C1/9 61, ngo P. Hoàng Cầu, Chợ Dừa, Đống Đa, Hà Nội"
https://www.google.com/maps/place/Quynh+Mai+Secondary+School/data=!4m7!3m6!1s0x3135ac09451fc6e9:0x54cd8c66ff6b550!8m2!3d21.0018218!4d105.8592286!16s%2Fg%2F1trvhxbk!19sChIJ6cYfRQmsNTERULX2b8bYTAU?authuser=0&hl=en&rclk=1,Quynh Mai Secondary School,Middle school,21.001822,105.859229,"C2-C6 P. Quỳnh Lôi, Quỳnh Mai, Hai Bà Trưng, Hà Nội"
https://www.google.com/maps/place/Magic+Music+School/data=!4m7!3m6!1s0x3135ab9e118d9c85:0x3e6aafa92793747a!8m2!3d21.0270938!4d105.830017!16s%2Fg%2F11f30mhrf1!19sChIJhZyNEZ6rNTERenSTJ6mvaj4?authuser=0&hl=en&rclk=1,Magic Music School,School,21.027094,105.830017,"79 P. An Trạch, Quốc Tử Giám, Đống Đa, Hà Nội"
https://www.google.com/maps/place/Phuc+Xa+Secondary+School/data=!4m7!3m6!1s0x3135abb658b913e5:0x6c502519008355b!8m2!3d21.0462464!4d105.8496254!16s%2Fg%2F1hdzjczn_!19sChIJ5RO5WLarNTERWzUIkFECxQY?authuser=0&hl=en&rclk=1,Phuc Xa Secondary School,Middle school,21.046246,105.849625,"2 P. An Xá, Phúc xá, Ba Đình, Hà Nội"
https://www.google.com/maps/place/Ivy+Global+School/data=!4m7!3m6!1s0x499efd19daee1e93:0xf94c895630a17a84!8m2!3d21.0099822!4d105.8100873!16s%2Fg%2F11l1n06dh2!19sChIJkx7u2hn9nkkRhHqhMFaJTPk?authuser=0&hl=en&rclk=1,Ivy Global School,School,21.009982,105.810087,"27 Lê Văn Lương Hà Nội, Hanoi City, 100000"
https://www.google.com/maps/place/Trung+Nhi+Secondary+School/data=!4m7!3m6!1s0x3135abf460343b4d:0x72def50536479526!8m2!3d21.0117209!4d105.8557609!16s%2Fg%2F1tff0hy7!19sChIJTTs0YPSrNTERJpVHNgX13nI?authuser=0&hl=en&rclk=1,Trung Nhi Secondary School,Middle school,21.011721,105.855761,"30 P. Hương Viên, Đồng Nhân, Hai Bà Trưng, Hà Nội"
https://www.google.com/maps/place/Ba+Dinh+Elementary+School/data=!4m7!3m6!1s0x3135aba5dbfca133:0xf42408f8efd37380!8m2!3d21.0411091!4d105.8234712!16s%2Fg%2F1wc2zq9r!19sChIJM6H826WrNTERgHPT7_gIJPQ?authuser=0&hl=en&rclk=1,Ba Dinh Elementary School,Elementary school,21.041109,105.823471,"Ngõ 165 Đ. Hoàng Hoa Thám, Ngọc Hồ, Ba Đình, Hà Nội"
https://www.google.com/maps/place/Gia+Quat+Primary+School/data=!4m7!3m6!1s0x3135a9137cf8d323:0x1999203596b92485!8m2!3d21.0542542!4d105.8776066!16s%2Fg%2F11g2wn2dkt!19sChIJI9P4fBOpNTERhSS5ljUgmRk?authuser=0&hl=en&rclk=1,Gia Quat Primary School,Primary school,21.054254,105.877607,"Gia Quất, Long Biên, Hà Nội"
https://www.google.com/maps/place/Ai+Mo+B+Elementary+School/data=!4m7!3m6!1s0x3135abd72c9a5a89:0x7f1661c4cd99771f!8m2!3d21.0428698!4d105.870054!16s%2Fg%2F11csrpkwmr!19sChIJiVqaLNerNTERH3eZzcRhFn8?authuser=0&hl=en&rclk=1,Ai Mo B Elementary School,Elementary school,21.04287,105.870054,"207/3/135 Đ. Nguyễn Văn Cừ, Tổ 9, Long Biên, Hà Nội 100000"
https://www.google.com/maps/place/Nursery+School+Vietnam+-+Bulgaria/data=!4m7!3m6!1s0x3135abf38ca0b497:0x14ff7d0dd7e4f5bd!8m2!3d21.0123966!4d105.8568135!16s%2Fg%2F1thzr7vb!19sChIJl7SgjPOrNTERvfXk1w19_xQ?authuser=0&hl=en&rclk=1,Nursery School Vietnam - Bulgaria,Preschool,21.012397,105.856814,"27 P. Hương Viên, Đồng Nhân, Hai Bà Trưng, Hà Nội"
https://www.google.com/maps/place/Benjamin+School+English+Center/data=!4m7!3m6!1s0x3135a97d72a08c1d:0xb4f9a9d91a51a981!8m2!3d21.0418593!4d105.8773917!16s%2Fg%2F11hbbswm38!19sChIJHYygcn2pNTERgalRGtmp-bQ?authuser=0&hl=en&rclk=1,Benjamin School English Center,Education center,21.041859,105.877392,"69a P. Hoàng Như Tiếp, Bồ Đề, Long Biên, Hà Nội"
https://www.google.com/maps/place/Cat+Linh+Secondary+School/data=!4m7!3m6!1s0x3135ab9e2118e255:0xc6cd72c886e68722!8m2!3d21.0290627!4d105.8293413!16s%2Fg%2F1td4b076!19sChIJVeIYIZ6rNTERIofmhshyzcY?authuser=0&hl=en&rclk=1,Cat Linh Secondary School,Middle school,21.029063,105.829341,"31 P. Cát Linh, Cát Linh, Đống Đa, Hà Nội"
https://www.google.com/maps/place/Secondary+School+Vinh+Tuy/data=!4m7!3m6!1s0x3135ac023a1b816d:0x6b50868a87efeee1!8m2!3d20.9984618!4d105.8739005!16s%2Fg%2F1hm6c7z01!19sChIJbYEbOgKsNTER4e7vh4qGUGs?authuser=0&hl=en&rclk=1,Secondary School Vinh Tuy,Middle school,20.998462,105.8739,"XVXF+9HJ Secondary School Vinh Tuy, P. Dương Văn Bé, Vĩnh Phú, Hai Bà Trưng, Hà Nội"
https://www.google.com/maps/place/Hoang+Van+Thu+Secondary+School/data=!4m7!3m6!1s0x3135ac134eb04c4b:0xc492829804e7ba2f!8m2!3d20.9908319!4d105.8529742!16s%2Fg%2F11h17hrms!19sChIJS0ywThOsNTERL7rnBJiCksQ?authuser=0&hl=en&rclk=1,Hoang Van Thu Secondary School,Middle school,20.990832,105.852974,"XVR3+85Q Hoang Van Thu Secondary School, Hoàng Văn Thụ, Hoàng Mai, Hà Nội"
https://www.google.com/maps/place/Le+Quy+Don+-+Dong+Da+High+School/data=!4m7!3m6!1s0x3135ab810b49c67f:0xde9a82c6b8e44949!8m2!3d21.0134239!4d105.8322856!16s%2Fg%2F1tgvb2j0!19sChIJf8ZJC4GrNTERSUnkuMaCmt4?authuser=0&hl=en&rclk=1,Le Quy Don - Dong Da High School,High school,21.013424,105.832286,"195 Ng. Xã Đàn 2, Nam Đồng, Đống Đa, Hà Nội"
https://www.google.com/maps/place/Solidarity+Primary+School/data=!4m7!3m6!1s0x3135abf4ea2283d9:0x88317273a35cf8ad!8m2!3d21.0102633!4d105.8542505!16s%2Fg%2F1tkkrbjd!19sChIJ2YMi6vSrNTERrfhco3NyMYg?authuser=0&hl=en&rclk=1,Solidarity Primary School,School,21.010263,105.85425,"Phố P. Chùa Vua, Phố Huế, Hai Bà Trưng, Hà Nội"
https://www.google.com/maps/place/Hai+Ba+Trung+Secondary+School/data=!4m7!3m6!1s0x3135abf87b2fc4b5:0x8dc67d87419dc1bb!8m2!3d21.0066176!4d105.8656526!16s%2Fg%2F1td5j4wh!19sChIJtcQve_irNTERu8GdQYd9xo0?authuser=0&hl=en&rclk=1,Hai Ba Trung Secondary School,Middle school,21.006618,105.865653,"94B Đ. Đê Trần Khát Chân, Thanh Lương, Hai Bà Trưng, Hà Nội"
https://www.google.com/maps/place/Trung+t%C3%A2m+ti%E1%BA%BFng+H%C3%A0n+The+Korean+School/data=!4m7!3m6!1s0x3135ad0957158ea9:0x19e163cd6adac9be!8m2!3d21.010958!4d105.802486!16s%2Fg%2F11fhkd3hc8!19sChIJqY4VVwmtNTERvsnaas1j4Rk?authuser=0&hl=en&rclk=1,Trung tâm tiếng Hàn The Korean School,Foreign languages program school,21.010958,105.802486,"32 Ng. 23 P. Đỗ Quang, Trung Hoà, Hà Nội, 10000"
https://www.google.com/maps/place/Minh+Khai+Elementary+School/data=!4m7!3m6!1s0x3135ac74dcae6af3:0x27121d0f185f61ba!8m2!3d21.0042279!4d105.8521728!16s%2Fg%2F1pzyf3bn1!19sChIJ82qu3HSsNTERumFfGA8dEic?authuser=0&hl=en&rclk=1,Minh Khai Elementary School,Elementary school,21.004228,105.852173,"Ngõ 17 Ng. Trại Găng, Thanh Nhàn, Hai Bà Trưng, Hà Nội"
https://www.google.com/maps/place/Long+Bien+Secondary+School/data=!4m7!3m6!1s0x3135a967160246e5:0xf466176000d77eef!8m2!3d21.0295057!4d105.8831607!16s%2Fg%2F1tgj69b2!19sChIJ5UYCFmepNTER737XAGAXZvQ?authuser=0&hl=en&rclk=1,Long Bien Secondary School,Middle school,21.029506,105.883161,"16/163/3 P. Tư Đình, Long Biên, Hà Nội"
https://www.google.com/maps/place/Ng%C3%B4+Quy%E1%BB%81n+Primary+School/data=!4m7!3m6!1s0x3135ac0c13b6b05d:0xc12d097903cffd50!8m2!3d21.0004688!4d105.8567922!16s%2Fg%2F1tdq819f!19sChIJXbC2EwysNTERUP3PA3kJLcE?authuser=0&hl=en&rclk=1,Ngô Quyền Primary School,Elementary school,21.000469,105.856792,"2V24+5PM Ngô Quyền Primary School, Ng. Quỳnh, Quỳnh Lôi, Hai Bà Trưng, Hà Nội"
https://www.google.com/maps/place/Van+Xuan+High+School/data=!4m7!3m6!1s0x3135abd62385c55d:0x2f14045e120c4eba!8m2!3d21.0438667!4d105.8755134!16s%2Fg%2F1hhxmtycq!19sChIJXcWFI9arNTERuk4MEl4EFC8?authuser=0&hl=en&rclk=1,Van Xuan High School,High school,21.043867,105.875513,"Số 56 P. Hoàng Như Tiếp, Bồ Đề, Long Biên, Hà Nội"
https://www.google.com/maps/place/MindX+Technology+School+%28Th%C3%A0nh+C%C3%B4ng%29/data=!4m7!3m6!1s0x3135ab9f10111ae7:0x9112347ed343cc56!8m2!3d21.0223142!4d105.816337!16s%2Fg%2F11hdz9xcn3!19sChIJ5xoREJ-rNTERVsxD0340EpE?authuser=0&hl=en&rclk=1,MindX Technology School (Thành Công),School,21.022314,105.816337,"Tầng 6, toà C, 22 Thành Công Hanoi Hanoi City, 22 P. Thành Công, Thành Công, Ba Đình, Hà Nội 100000"
"https://www.google.com/maps/place/Secondary+School,+Nguyen+Cong+Tru/data=!4m7!3m6!1s0x3135abba014fb533:0x86a96de7b6ee18fa!8m2!3d21.0422543!4d105.8465177!16s%2Fg%2F1hm4tj4l9!19sChIJM7VPAbqrNTER-hjutudtqYY?authuser=0&hl=en&rclk=1","Secondary School, Nguyen Cong Tru",Middle school,21.042254,105.846518,"8 P. Nguyễn Trường Tộ, Nguyễn Trung Trực, Ba Đình, Hà Nội"
https://www.google.com/maps/place/Ha+Huy+Tap+Secondary+School/data=!4m7!3m6!1s0x3135ac0c35f1ef65:0xef9f7c017b972c4d!8m2!3d20.9984571!4d105.8569662!16s%2Fg%2F1tdcz4t0!19sChIJZe_xNQysNTERTSyXewF8n-8?authuser=0&hl=en&rclk=1,Ha Huy Tap Secondary School,Middle school,20.998457,105.856966,"XVX4+9QP Ha Huy Tap Secondary School, P. Hồng Mai, Quỳnh Lôi, Hai Bà Trưng, Hà Nội"
https://www.google.com/maps/place/Khuong+Mai+Primary+School/data=!4m7!3m6!1s0x3135ac8624585053:0x528704231175bc28!8m2!3d20.9988121!4d105.825177!16s%2Fg%2F1w04gl05!19sChIJU1BYJIasNTERKLx1ESMEh1I?authuser=0&hl=en&rclk=1,Khuong Mai Primary School,Primary school,20.998812,105.825177,"Ngõ 106 P. Nguyễn Ngọc Nại, Khương Mai, Thanh Xuân, Hà Nội"
https://www.google.com/maps/place/Quang+Trung+Primary+School/data=!4m7!3m6!1s0x3135ab926c8864f5:0x39c92502a424761b!8m2!3d21.0202808!4d105.8481663!16s%2Fg%2F1wc45ggm!19sChIJ9WSIbJKrNTERG3YkpAIlyTk?authuser=0&hl=en&rclk=1,Quang Trung Primary School,Elementary school,21.020281,105.848166,"39 P. Quang Trung, Trần Hưng Đạo, Hoàn Kiếm, Hà Nội"
https://www.google.com/maps/place/Quynh+Mai+Nursery+School/data=!4m7!3m6!1s0x3135ac08cd811fcb:0x2a788cefa6f0ea42!8m2!3d21.0004271!4d105.8614481!16s%2Fg%2F1hc6p6cmf!19sChIJyx-BzQisNTERQurwpu-MeCo?authuser=0&hl=en&rclk=1,Quynh Mai Nursery School,Preschool,21.000427,105.861448,"9 P. Kim Ngưu, Quỳnh Mai, Hai Bà Trưng, Hà Nội"
https://www.google.com/maps/place/La+Thanh+Elementary+School/data=!4m7!3m6!1s0x3135ab836f1e16b9:0xf268b5426112cd2e!8m2!3d21.0172843!4d105.8348833!16s%2Fg%2F11cjp3wd5s!19sChIJuRYeb4OrNTERLs0SYUK1aPI?authuser=0&hl=en&rclk=1,La Thanh Elementary School,Elementary school,21.017284,105.834883,"28 Ngh. 79 Ng. Thổ Quan, Thổ Quan, Đống Đa, Hà Nội"
https://www.google.com/maps/place/An+Duong+Primary+School/data=!4m7!3m6!1s0x3135abad37693145:0x127b9a3685f9ba58!8m2!3d21.0544411!4d105.8388687!16s%2Fg%2F12lvt0lg1!19sChIJRTFpN62rNTERWLr5hTaaexI?authuser=0&hl=en&rclk=1,An Duong Primary School,Elementary school,21.054441,105.838869,"Ngõ 189 P. An Dương, Yên Phụ, Tây Hồ, Hà Nội"
https://www.google.com/maps/place/Hanoi+Elementary+School/data=!4m7!3m6!1s0x3135ab144b0c5e0b:0xf458802f8421f4cb!8m2!3d21.0387322!4d105.8085636!16s%2Fg%2F12hlww_cc!19sChIJC14MSxSrNTERy_QhhC-AWPQ?authuser=0&hl=en&rclk=1,Hanoi Elementary School,Elementary school,21.038732,105.808564,"2RQ5+FCW Hanoi Elementary School, Ng. 463 P. Đội Cấn, Vĩnh Phú, Ba Đình, Hà Nội"
https://www.google.com/maps/place/Ai+Mo+Secondary+School/data=!4m7!3m6!1s0x3135abd67973430d:0x294b918e9ea558cd!8m2!3d21.0453608!4d105.8733845!16s%2Fg%2F1w6r5rkj!19sChIJDUNzedarNTERzVilno6RSyk?authuser=0&hl=en&rclk=1,Ai Mo Secondary School,Middle school,21.045361,105.873385,"34 Ngõ 298 Ngọc Lâm, Ngọc Lâm, Long Biên, Hà Nội"
https://www.google.com/maps/place/Long+Bien+Primary+School/data=!4m7!3m6!1s0x3135a942e19b243d:0xe6b5a42b764dce72!8m2!3d21.0243606!4d105.8899536!16s%2Fg%2F1v3dplns!19sChIJPSSb4UKpNTERcs5NdiukteY?authuser=0&hl=en&rclk=1,Long Bien Primary School,Primary school,21.024361,105.889954,"2VFQ+PXW Long Bien Primary School, Đ. Bát Khối, Long Biên, Hà Nội"
https://www.google.com/maps/place/Tuoi+Hoa+Private+Nursery+School/data=!4m7!3m6!1s0x3135abf96e1ec3d9:0xe9386ea5da914aa1!8m2!3d21.0105794!4d105.8679476!16s%2Fg%2F11b6dpbnv_!19sChIJ2cMebvmrNTERoUqR2qVuOOk?authuser=0&hl=en&rclk=1,Tuoi Hoa Private Nursery School,Preschool,21.010579,105.867948,"101, Bach Dang Street, Hai Ba Trung District, Bạch Đằng, Hai Bà Trưng, Hà Nội"
https://www.google.com/maps/place/Thinh+Hao+Primary+School/data=!4m7!3m6!1s0x3135ab86e159ac3f:0x6c714703ca3017c6!8m2!3d21.0186955!4d105.8287888!16s%2Fg%2F11ll4x80pw!19sChIJP6xZ4YarNTERxhcwygNHcWw?authuser=0&hl=en&rclk=1,Thinh Hao Primary School,Elementary school,21.018695,105.828789,"9 P. Ô Chợ Dừa, Chợ Dừa, Đống Đa, Hà Nội"
https://www.google.com/maps/place/School+of+International+Education/data=!4m7!3m6!1s0x3135ac76ec11422d:0x2791469add0b8b05!8m2!3d21.004034!4d105.844867!16s%2Fg%2F1td7ksgl!19sChIJLUIR7HasNTERBYsL3ZpGkSc?authuser=0&hl=en&rclk=1,School of International Education,University,21.004034,105.844867,"Phòng 201-D7, ĐHBK Hà Nội, P. Trần Đại Nghĩa, Bách Khoa, Hai Bà Trưng, Hà Nội 112400"
https://www.google.com/maps/place/Nguyen+Trai+High+School/data=!4m7!3m6!1s0x3135ab739c3436f7:0x97d84b8427d04c46!8m2!3d21.029644!4d105.8222189!16s%2Fg%2F11vb0whk4!19sChIJ9zY0nHOrNTERRkzQJ4RL2Jc?authuser=0&hl=en&rclk=1,Nguyen Trai High School,High school,21.029644,105.822219,"50 P. Nam Cao, Giảng Võ, Ba Đình, Hà Nội"
https://www.google.com/maps/place/Nguyen+Trai+Middle+School/data=!4m7!3m6!1s0x3135ab7516abbcc1:0x45babada7143e8bf!8m2!3d21.031016!4d105.8266255!16s%2Fg%2F1tfkhmvv!19sChIJwbyrFnWrNTERv-hDcdq6ukU?authuser=0&hl=en&rclk=1,Nguyen Trai Middle School,Middle school,21.031016,105.826625,"25 P. Giang Văn Minh, Kim Mã, Ba Đình, Hà Nội"
https://www.google.com/maps/place/Pham+Hong+Thai+High+School/data=!4m7!3m6!1s0x3135ab6caf3fd04b:0x551b8c89735dca5e!8m2!3d21.0336751!4d105.8118693!16s%2Fg%2F1v1tkkf3!19sChIJS9A_r2yrNTERXspdc4mMG1U?authuser=0&hl=en&rclk=1,Pham Hong Thai High School,High school,21.033675,105.811869,"01 P. Nguyễn Văn Ngọc, Cống Vị, Ba Đình, Hà Nội"
https://www.google.com/maps/place/Giang+Vo+Middle+School/data=!4m7!3m6!1s0x3135ab73e934f769:0x561780873948fdf8!8m2!3d21.0287774!4d105.8216965!16s%2Fg%2F1tfz7nhw!19sChIJafc06XOrNTER-P1IOYeAF1Y?authuser=0&hl=en&rclk=1,Giang Vo Middle School,Middle school,21.028777,105.821697,"1 P. Trần Huy Liệu, Giảng Võ, Ba Đình, Hà Nội 10000"
https://www.google.com/maps/place/To+Vinh+Dien+Junior+High+School/data=!4m7!3m6!1s0x3135ab780ed15b91:0x3cb4bacf630c4e5b!8m2!3d21.0216631!4d105.828338!16s%2Fg%2F11b6df9sgf!19sChIJkVvRDnirNTERW04MY8-6tDw?authuser=0&hl=en&rclk=1,To Vinh Dien Junior High School,Middle school,21.021663,105.828338,"79 Ng. Cẩm Văn, Street, Đống Đa, Hà Nội"
https://www.google.com/maps/place/Morning+Star+International+School/data=!4m7!3m6!1s0x291a17429102499d:0x5023d3e7496e6f86!8m2!3d15.7939252!4d105.9102589!16s%2Fg%2F11vf0h0mgl!19sChIJnUkCkUIXGikRhm9uSefTI1A?authuser=0&hl=en&rclk=1,Morning Star International School,International school,15.793925,105.910259,
https://www.google.com/maps/place/Luong+Yen+Secondary+School/data=!4m7!3m6!1s0x3135abf77ebd47dd:0xa75ff6bb4ba63166!8m2!3d21.0093474!4d105.8638893!16s%2Fg%2F1hf0x0mly!19sChIJ3Ue9fverNTERZjGmS7v2X6c?authuser=0&hl=en&rclk=1,Luong Yen Secondary School,Middle school,21.009347,105.863889,"Ngõ 63 P. Lương Yên, Bạch Đằng, Hai Bà Trưng, Hà Nội"
https://www.google.com/maps/place/MindX+Technology+School+%28Ho%C3%A0ng+%C4%90%E1%BA%A1o+Th%C3%BAy%29/data=!4m7!3m6!1s0x3135ad15a3789c51:0xa1b9661a09fd952d!8m2!3d21.0079916!4d105.8021305!16s%2Fg%2F11flbgjdxt!19sChIJUZx4oxWtNTERLZX9CRpmuaE?authuser=0&hl=en&rclk=1,MindX Technology School (Hoàng Đạo Thúy),School,21.007992,105.80213,"29 T1 Hoàng Đạo Thúy Hà Nội, Hanoi City, 10000"
https://www.google.com/maps/place/Thanh+Cong+A+Primary+School/data=!4m7!3m6!1s0x3135ab6f5e400249:0xc1765b70bda024e0!8m2!3d21.0229766!4d105.8127138!16s%2Fg%2F1tfztzj5!19sChIJSQJAXm-rNTER4CSgvXBbdsE?authuser=0&hl=en&rclk=1,Thanh Cong A Primary School,Primary school,21.022977,105.812714,"Ngõ 9 P. Nguyên Hồng, Thành Công, Ba Đình, Hà Nội"
https://www.google.com/maps/place/Ly+Thuong+Kiet+secondary+School/data=!4m7!3m6!1s0x3135ab8baf3b1e25:0xe60427ac466a1872!8m2!3d21.029!4d105.8384!16s%2Fg%2F11bzwnsbk8!19sChIJJR47r4urNTERchhqRqwnBOY?authuser=0&hl=en&rclk=1,Ly Thuong Kiet secondary School,Middle school,21.029,105.8384,"104 P. Nguyễn Khuyến, Văn Miếu, Đống Đa, Hà Nội"
https://www.google.com/maps/place/Sunrisekidz+School/data=!4m7!3m6!1s0x3135abfad72fa3bb:0x2d251259281a85a4!8m2!3d21.0422607!4d105.8470925!16s%2Fg%2F11fklft3cs!19sChIJu6Mv1_qrNTERpIUaKFkSJS0?authuser=0&hl=en&rclk=1,Sunrisekidz School,Kindergarten,21.042261,105.847093,"16 Hàng Than, Nguyễn Trung Trực, Ba Đình, Hà Nội"
https://www.google.com/maps/place/Ngoc+Ha+Elementary+School/data=!4m7!3m6!1s0x3135ab0a2413805f:0x5e259e78ac67cefa!8m2!3d21.0381989!4d105.8271749!16s%2Fg%2F11cnb5snmx!19sChIJX4ATJAqrNTER-s5nrHieJV4?authuser=0&hl=en&rclk=1,Ngoc Ha Elementary School,Elementary school,21.038199,105.827175,"35 Ng. 55 Đ. Hoàng Hoa Thám, Ngọc Hồ, Ba Đình, Hà Nội"
https://www.google.com/maps/place/Thanh+Luong+Primary+School/data=!4m7!3m6!1s0x3135abf7c984af19:0x38d63fab6e02436d!8m2!3d21.0076888!4d105.8617491!16s%2Fg%2F1vljctjc!19sChIJGa-EyferNTERbUMCbqs_1jg?authuser=0&hl=en&rclk=1,Thanh Luong Primary School,School,21.007689,105.861749,"2V56+3MH Thanh Luong Primary School, Ng. 184 Đê Trần Khát Chân, Thanh Lương, Hai Bà Trưng, Hà Nội"
